<?xml version="1.0" encoding="UTF-8"?>
<kml xmlns="http://www.opengis.net/kml/2.2">
    <Document>
        <Style id="ourPolygonStyle">
            <LineStyle>
                <color>70ff0000</color>
                <width>2</width>
            </LineStyle>
            <PolyStyle>
                <color>3dff5500</color>
            </PolyStyle>
        </Style>
        <Placemark>
            <styleUrl>#ourPolygonStyle</styleUrl>
            <name>Hackney Borough Council</name>
            <Polygon><outerBoundaryIs><LinearRing><coordinates>-0.061158761716309,51.5777860114155 -0.060901736593583,51.577341227596 -0.060787018375359,51.5771275229301 -0.060447014374126,51.5762903559798 -0.060168462202336,51.5757353091678 -0.060134721368127,51.5756406135621 -0.059884559815528,51.5752473769838 -0.059694647779021,51.5749624277012 -0.059565218400368,51.5747853565468 -0.059360728130949,51.5745307997613 -0.059174368787067,51.5742822890083 -0.058839146481009,51.5737566792327 -0.058722449531679,51.5735155213933 -0.058717082157207,51.5735046449571 -0.058661643499108,51.5731964548145 -0.058587036653189,51.5728867683195 -0.058528013621448,51.572712826549 -0.058481969429635,51.5726241035075 -0.058432298311061,51.5725648872997 -0.058330606191099,51.5724737643312 -0.058034428557609,51.5722700239244 -0.057708096699693,51.5720502610513 -0.057432209776804,51.5718537444702 -0.057097786053367,51.5716135628924 -0.057060325073076,51.571584085651 -0.056906049958779,51.5714632623527 -0.056848154633712,51.571414523181 -0.056794172877239,51.5713630107598 -0.056772360821406,51.571340414954 -0.056750334015113,51.57130504333 -0.056655830569839,51.5710820826192 -0.056598673324157,51.5709803717791 -0.056554339833599,51.5709162460015 -0.056491584489203,51.5708390426012 -0.056414509928764,51.5707772130444 -0.056316355471277,51.5707112489922 -0.056225143228011,51.5706605381646 -0.05612592157198,51.5706196286578 -0.056028431651708,51.5705915209336 -0.055960004305505,51.5705761942325 -0.055895006899307,51.5705694394994 -0.055620846072342,51.5705365099476 -0.055523248648242,51.5705287413876 -0.055461904283329,51.5705253589871 -0.055334540766959,51.5705213537372 -0.055232888857793,51.5705196677621 -0.055021120491711,51.5705189941166 -0.054953686544361,51.5705159825498 -0.054881304405399,51.5705043746186 -0.054778243866392,51.5704823235108 -0.05468973768551,51.5704572017895 -0.054597103928263,51.5704220773391 -0.054532336386668,51.5703921453128 -0.054473697468352,51.5703608959009 -0.054416698049632,51.5703268355839 -0.054355468856448,51.5702851359386 -0.054272570603968,51.5702175312595 -0.054239148513379,51.570182443064 -0.054193397389381,51.5701207586312 -0.054103852088136,51.5699976982604 -0.053936222372122,51.5697384107399 -0.053800236011888,51.5695095550565 -0.053668434642501,51.5692731824723 -0.053511105498512,51.5689914793411 -0.053461915081329,51.5688634077127 -0.053441021575669,51.5688015628036 -0.053358437992451,51.5687088893621 -0.053287694598874,51.5686589890516 -0.05313229051622,51.5685651072886 -0.053011945322969,51.568494602959 -0.052880102863179,51.5684292348229 -0.052764485290231,51.5683771285757 -0.052553995390867,51.5682773411654 -0.052438099342514,51.5682322145608 -0.052394912314549,51.568212745727 -0.052084763269643,51.5680890622953 -0.051887860299773,51.5680130295748 -0.051588875093286,51.567897186729 -0.051276408027443,51.5677802186803 -0.051227892880292,51.5677621217433 -0.051179181817874,51.5677424640075 -0.051147255551653,51.5677301835619 -0.051145144453189,51.5677293715673 -0.051116070175114,51.5677157949333 -0.051075631438591,51.567695747448 -0.050994918527271,51.5676534582604 -0.050837744880341,51.567552284196 -0.050674328004858,51.5674350011712 -0.05043053091772,51.5672557723113 -0.050164939289748,51.567060677639 -0.049963078983333,51.5669257357155 -0.049673048945664,51.566754427022 -0.04942726964523,51.566611655141 -0.049228688188986,51.5664882428273 -0.049055366124546,51.5663375298517 -0.048811424625568,51.5661047984407 -0.048656181540626,51.5659647798272 -0.048469556176936,51.5658219302443 -0.048231768286802,51.5656620613321 -0.048040615957745,51.5655645703915 -0.048019691391193,51.5655520303696 -0.047517408002612,51.5652902248338 -0.047412084456392,51.5652146692292 -0.047298478514177,51.5651020734979 -0.04707994786128,51.5648585748784 -0.046656487920893,51.5643767224692 -0.046615152396611,51.564235805941 -0.046607458984236,51.5640730463827 -0.046616122599775,51.5639840110285 -0.046632834142575,51.5639181388622 -0.046663045376884,51.5638448888065 -0.046729120247736,51.5637302474979 -0.04682750539273,51.5636133188786 -0.046871287387507,51.5635643471554 -0.047033892544244,51.5634257006665 -0.047125238929306,51.5633360806123 -0.047165236419696,51.5632893821491 -0.04724320479542,51.563189492048 -0.047287912355497,51.5631134487231 -0.047306362461252,51.5630430973345 -0.047324897372317,51.5629805727779 -0.047332015092183,51.5629069161118 -0.047326710679543,51.5628588214263 -0.047316516516404,51.5628191174425 -0.047293388029495,51.5627640187748 -0.047273624357208,51.5627361573061 -0.047248292103292,51.5627060845734 -0.047212878942944,51.5626733739339 -0.047079296574135,51.5625920829075 -0.04693245761528,51.5625162195793 -0.046812919842882,51.5624641074193 -0.046560706085241,51.5623624870108 -0.046395541234764,51.5623520321777 -0.04622688918628,51.5623357799751 -0.046186732043467,51.5623309186577 -0.046055915643818,51.5623141391642 -0.045997189554597,51.5623058960558 -0.045898794086495,51.5622906359789 -0.045830449193002,51.5622779315506 -0.045784494059679,51.5622658784021 -0.04576093891865,51.5622581106707 -0.045724144603775,51.56224443837 -0.045680627366292,51.5622158279624 -0.045638022931173,51.5621791141389 -0.045578865801738,51.5621057665575 -0.045552433458806,51.562074969219 -0.045537666859829,51.5620627218592 -0.045463271925147,51.5620145366448 -0.045295324839004,51.5619026675947 -0.045147926496009,51.561800317353 -0.045129909599196,51.5617899168931 -0.045077340238656,51.5617595692783 -0.045020696112006,51.5617422579429 -0.04492772510605,51.5617210559487 -0.044854402668386,51.5617067231459 -0.044777950056874,51.5616955377819 -0.04469616485237,51.5616879523854 -0.044626370019677,51.5616854073188 -0.044552069656936,51.5616844004818 -0.04451576960257,51.5616856404922 -0.044470159906167,51.5616883387697 -0.044440034609597,51.5616922175036 -0.044347445860466,51.5617147474125 -0.044296527490888,51.56172671141 -0.044245955610372,51.5617330157678 -0.044195861461424,51.561736792124 -0.044152569419945,51.5617372231505 -0.04399264746303,51.5617327999894 -0.043826713667207,51.5617256748962 -0.04373776155973,51.5617191762777 -0.043694553858718,51.5617110798832 -0.043650569625809,51.561698986781 -0.043579396818807,51.5616750803089 -0.043177524410186,51.5615461082017 -0.042809101794511,51.5614409157318 -0.042659907109817,51.5614035350841 -0.042512311102329,51.5613814252821 -0.042362870389342,51.5613681459329 -0.042166070099273,51.5613828463013 -0.041861672341588,51.5614155300625 -0.041687237969594,51.5614440870489 -0.041052249777968,51.5616150974833 -0.040714601905688,51.5617183350981 -0.040583552832337,51.5617449173036 -0.040449920410013,51.5617651631826 -0.040287673904626,51.5617813352857 -0.040229670267867,51.5617850310277 -0.040176067051031,51.561782955827 -0.040136389984332,51.5617783315559 -0.040073797923446,51.5617690020905 -0.040017635780005,51.5617579795613 -0.03994417395001,51.5617326208255 -0.039891285052789,51.561712647591 -0.039811996435002,51.5616800540346 -0.039741186616309,51.5616417054398 -0.039635152945986,51.5615808644908 -0.039566415073023,51.5615397356632 -0.039514584297405,51.5615086137059 -0.039452292005377,51.5614654314622 -0.03940263335628,51.561437587576 -0.039233710911123,51.5613205856481 -0.039122351624441,51.5612492094158 -0.039077570077861,51.5612224414081 -0.03905289382804,51.5612114252304 -0.03901327093373,51.5611953187245 -0.038974576134044,51.5611834668524 -0.03888880615278,51.5611653469773 -0.038854602386759,51.5611608568274 -0.038819929069101,51.5611586636514 -0.038784029584398,51.5611592170382 -0.038689996293546,51.5611698651096 -0.038661857961454,51.5611705471681 -0.038625667175593,51.5611692512423 -0.038577137622318,51.5611624471548 -0.038535482439587,51.5611592155429 -0.038371291599299,51.5611592034574 -0.038237850030793,51.5611650644066 -0.03813291211721,51.561177381479 -0.037922554304562,51.5612175439501 -0.037214043496505,51.5614215575697 -0.037043418747103,51.5614550912223 -0.036935244805287,51.561470932228 -0.036788301368343,51.5614879263096 -0.036721254623253,51.5614956669369 -0.036693045195755,51.5614979615221 -0.036640843795471,51.5614991634887 -0.036551868965355,51.561495371227 -0.036403957402234,51.5614859820923 -0.03628680222304,51.5614752635256 -0.036163092435343,51.5614621295167 -0.036023059114137,51.5614415768223 -0.035929786304718,51.5614259551793 -0.035735007969362,51.5613883492427 -0.035626540454094,51.561364866315 -0.035551136697115,51.5613465459802 -0.035444395269398,51.5613173283426 -0.035354697201876,51.5612960026241 -0.035180723940698,51.5612476791899 -0.035099465434674,51.561219347978 -0.035018266534796,51.5611896355308 -0.034919505486877,51.5611554790511 -0.034769189197609,51.5610921399175 -0.034638425526043,51.5610365081098 -0.034586762030775,51.5610155313614 -0.034502631419499,51.5609816426766 -0.034472593104389,51.5609685816579 -0.034378439766626,51.5609281978864 -0.034327872796884,51.5609063895705 -0.034287862830043,51.5608891958279 -0.034267757019888,51.560879440355 -0.034209293996564,51.5608519054734 -0.034119442641402,51.5608167634026 -0.0340363925002,51.5607830633378 -0.033966180925951,51.5607590195634 -0.033900836702452,51.5607404456501 -0.033673117638552,51.5606772472159 -0.03365039802267,51.5606717032135 -0.033575797316105,51.5606567105955 -0.03348910763271,51.5606416548896 -0.033285481569302,51.5606199637986 -0.033170613333286,51.5606169591709 -0.033053309848573,51.5606167957986 -0.032805830086178,51.5606335415054 -0.032657535954332,51.5606551910433 -0.032580627887427,51.5606697504601 -0.032413237184318,51.5607078205418 -0.032137298744957,51.5607790261089 -0.0319885223649,51.5608118320216 -0.031779237209749,51.5608750054152 -0.031736771758581,51.5608955452073 -0.031423470801097,51.5610215618326 -0.031267971897461,51.5610887428458 -0.031136806366077,51.5611360710973 -0.031021758314882,51.5611738961843 -0.031011907592769,51.5611774926633 -0.030956254092437,51.5611963371519 -0.030900640744104,51.5612142839184 -0.030894805309888,51.5612160745372 -0.030787934781303,51.5612404935323 -0.030626675220849,51.5612834335422 -0.030520298962379,51.5613058543123 -0.030424191835924,51.5613201343811 -0.030313148814606,51.5613347187131 -0.030226784563639,51.5613449255774 -0.030150200190104,51.5613533782833 -0.030093023418869,51.5613564020707 -0.030039790081247,51.5613588840743 -0.030008256659673,51.5613611212613 -0.029703357025317,51.5613472464993 -0.029555232467903,51.5613343882261 -0.029375652820594,51.5613219228014 -0.029240622211975,51.561297066404 -0.029122052229886,51.5612678746575 -0.029021031604839,51.5612348281073 -0.028871122809131,51.5611776770979 -0.028743612083835,51.5611414195445 -0.028649426691104,51.5611083678093 -0.028390733370793,51.5610202250315 -0.028282827996936,51.5609804274791 -0.028217869092904,51.5609553929588 -0.02810447833789,51.5609071273726 -0.027955181938459,51.5608472130565 -0.027900702670222,51.5608268389833 -0.027851804055447,51.5608101682591 -0.027731367744768,51.5607728755632 -0.027540302421122,51.5606911255811 -0.027218978816513,51.5605455020322 -0.027006822951024,51.5604442991809 -0.026727079785829,51.5603152197435 -0.026396172929079,51.560167470768 -0.026344476970758,51.560144127519 -0.026173210114351,51.5600665416569 -0.02592772348644,51.5599541347771 -0.025778418078903,51.5598757133848 -0.025736759601911,51.5598517103831 -0.025601597407317,51.5597551086475 -0.025116535896175,51.5593910411048 -0.024903137787914,51.55922323465 -0.024741231289078,51.5590821441891 -0.024532680424142,51.5588831412188 -0.024338880472071,51.5586389610911 -0.024292326495529,51.558558993794 -0.024158805697493,51.5582231218101 -0.024055502752603,51.5579267449328 -0.024031779866872,51.5578341366511 -0.023994376903014,51.5576523443942 -0.023946956194507,51.5574784131268 -0.023941131811009,51.5573744091962 -0.023940961166719,51.5573697589075 -0.023677470331868,51.5573429926995 -0.023006466733418,51.5572723733658 -0.02252968817057,51.557053887894 -0.022510663244427,51.5570448941082 -0.022078751448197,51.5568463850045 -0.021688957108391,51.5566676464667 -0.021269105298436,51.556474067648 -0.021192962570183,51.5564399955827 -0.020787097672478,51.5562519150054 -0.020479475006099,51.5561105774021 -0.019983208085624,51.5558819455364 -0.019592044748888,51.5557010734712 -0.019247263493471,51.5555421898344 -0.018963893160623,51.5554128074535 -0.018774074846374,51.5553258051793 -0.018633441640595,51.5552616150513 -0.018464328309649,51.5551846071466 -0.018331448160268,51.5548403254167 -0.018133098766822,51.5543224459818 -0.018048030918051,51.554088104586 -0.018046701717222,51.5540744483156 -0.017928383201863,51.5542210293626 -0.017761695749758,51.5539227412987 -0.017625729884031,51.5536537451111 -0.017481347605577,51.5533408840935 -0.017451080496704,51.5531935157275 -0.017348302408817,51.5527397577854 -0.017279503005236,51.5523889332634 -0.017202227932078,51.5519433623478 -0.017198823574127,51.5519075768542 -0.017179854939626,51.5517458887411 -0.017174227847735,51.5516758718737 -0.017175060101277,51.5516701674869 -0.017171367712602,51.5516221992216 -0.017174511949256,51.5515772610284 -0.01732494521777,51.5515693852704 -0.017909897774777,51.5515766754573 -0.018046933909687,51.5515804068223 -0.018303630397274,51.5515839463243 -0.018392894393845,51.5515865946501 -0.018668537962213,51.5515906177813 -0.018983384322586,51.5515962107331 -0.018959096808569,51.5515798623835 -0.018949384873931,51.5515683389843 -0.018910267199163,51.5515232138347 -0.018878890670776,51.5514661177958 -0.018867465904332,51.5514461114644 -0.018862277334921,51.5514289827823 -0.018851960290976,51.5513946041305 -0.018843513085705,51.5513675527931 -0.018833195806688,51.5513326822349 -0.018831158389006,51.5513242325018 -0.018824915197254,51.5512934647946 -0.018825796061581,51.5512731921401 -0.018828760583121,51.5512262112681 -0.018829585789637,51.5512200004475 -0.018839973847063,51.5511596575695 -0.018861592644018,51.5510876310987 -0.018869786795193,51.5510480009461 -0.018891250406552,51.5509393733887 -0.018913246849969,51.5508260489381 -0.018931963580746,51.5507199505395 -0.018939153220256,51.5506356439208 -0.018939517480052,51.5506110253729 -0.018935771909837,51.5505348893961 -0.018916787466161,51.5504523398763 -0.018862996741034,51.5503150985319 -0.018819799366907,51.5502288158844 -0.018769829325597,51.5501569898422 -0.018709450878636,51.5500465605442 -0.018662133104121,51.5499720283318 -0.018646190126159,51.5499441796165 -0.018612731842053,51.5498831085874 -0.018565631127988,51.5498097958101 -0.018492364643614,51.5496925222154 -0.018447338902246,51.5496134575926 -0.018403472878232,51.5495359556687 -0.018385067807245,51.5495024368357 -0.018327136211789,51.5493917032969 -0.018266075391769,51.5492121263082 -0.018194831006362,51.549001365065 -0.018132828557212,51.5488538876985 -0.018077489095699,51.5487315882258 -0.017967046851677,51.5484856451938 -0.017924620754499,51.5484187106764 -0.017906630367322,51.5483883855005 -0.017865609797391,51.5483329862718 -0.017803241020769,51.548248131359 -0.017770035009172,51.5481870961968 -0.017749411807627,51.5481493560934 -0.017706039835506,51.5480795755131 -0.017643737483691,51.5479816939036 -0.017620732765362,51.5479452246774 -0.017603702437439,51.5479149201735 -0.017576798463343,51.5478669553249 -0.017565402227224,51.5478460318808 -0.017544759011924,51.5478038822791 -0.017528013538889,51.5477697813598 -0.017505582532388,51.5477124892976 -0.017495284602987,51.5476884657335 -0.017463322174662,51.5475982467796 -0.017428887822373,51.5474929979008 -0.017396472211053,51.5473881284436 -0.017378753344311,51.5473278881361 -0.017365089470257,51.5472722109026 -0.017348062424492,51.5472003394207 -0.017337747559475,51.5471569380679 -0.017316600443314,51.5470905292736 -0.017278124997527,51.5469719559086 -0.017254188185416,51.546897430803 -0.017189124365864,51.5466941419139 -0.017116811894111,51.546471887163 -0.017063473707115,51.5463047132437 -0.017002198605967,51.5460666361323 -0.016975631982115,51.545979175472 -0.016945737960899,51.5457746364359 -0.016911225602737,51.5454979031919 -0.016881296150862,51.5452779725069 -0.016874308464869,51.5451305457113 -0.016849675348083,51.5450320692519 -0.016823553351411,51.5449678676189 -0.016813529197517,51.5448938230696 -0.016802554264905,51.5448160727392 -0.016776452665456,51.5446887228248 -0.016746833259995,51.5445752116779 -0.016686133476375,51.5444466645288 -0.01662689477181,51.5443493620421 -0.016617279396658,51.5443272132262 -0.016568689195517,51.544207980331 -0.016543371965204,51.5441294047997 -0.016518448194244,51.5439782458473 -0.016508223459264,51.5438875056046 -0.01650865800622,51.5437425783139 -0.016516137548504,51.5435758647653 -0.016538756723379,51.5434655998993 -0.016549012512973,51.5433709100424 -0.01654964704729,51.5433667652363 -0.016551132327223,51.543351414604 -0.016549851166095,51.5433298374151 -0.016764095536123,51.5433668011318 -0.016766088633491,51.5433408980376 -0.01677652744533,51.5433399944529 -0.016889093320965,51.5433618896179 -0.016962271573374,51.543379516523 -0.016990034818997,51.5433853894593 -0.017173406519445,51.5434014675658 -0.017274464297045,51.5434127435349 -0.017329302824488,51.5434178913656 -0.017455654367177,51.5434287510632 -0.017601752422003,51.5434421951254 -0.017754505203414,51.5434582837794 -0.01783487941246,51.5434678033778 -0.017938278389291,51.5434771489231 -0.018040835293775,51.5434954854581 -0.018057462405957,51.5434971727747 -0.018250792487273,51.5435142285556 -0.01830492307014,51.5434908150417 -0.018336821778118,51.5434945960931 -0.018326200211591,51.5435329605352 -0.018351553458907,51.5435344692818 -0.018388850817979,51.5435390032813 -0.018525658879959,51.5435494743921 -0.019256956599245,51.543576264288 -0.019466163827595,51.5435757361071 -0.019469421304327,51.54357896817 -0.019615259820652,51.5435793646895 -0.019740353319839,51.5435811980689 -0.019790716210461,51.543582599455 -0.019853073137748,51.5435828226762 -0.019903972766129,51.5435820262517 -0.019974012454222,51.5435823789481 -0.020003370631274,51.5435821967868 -0.020113749061142,51.5435792196628 -0.020319226371826,51.5435735830619 -0.020638616476693,51.5435624183714 -0.020877650819058,51.543552227732 -0.020888102100757,51.5435516044125 -0.021137866412246,51.5435392838427 -0.021305924646566,51.5435322038305 -0.021440959399448,51.5435259197069 -0.021573498487649,51.5435193838535 -0.021652946196269,51.5435152663912 -0.021737585301937,51.5435109611495 -0.021785922858577,51.5435091477368 -0.021833296826343,51.5435074385753 -0.021898030705767,51.5435041297407 -0.021936733011455,51.5435022474925 -0.022004024526173,51.5434988908532 -0.022010876877435,51.5434986474591 -0.022033871194411,51.5434974862077 -0.022048762823073,51.5434967667115 -0.022071252113359,51.5434956113351 -0.022088604949429,51.5434948397628 -0.022106700593969,51.5434942992215 -0.022127253470924,51.5434938315371 -0.022149015121989,51.5434932592084 -0.022163590545796,51.5434928473186 -0.022174446021845,51.543492214505 -0.022213139359094,51.5434898733861 -0.02227278092382,51.5434861953122 -0.02228515353805,51.5434854306658 -0.022297483308198,51.5434695899098 -0.022305265522732,51.5434597093782 -0.022318889806282,51.5434422852207 -0.022341067655594,51.543414153598 -0.022345248014673,51.5434080801738 -0.022362353061493,51.5434068358677 -0.022392836849099,51.543404938268 -0.022400190468614,51.5434047419612 -0.022470871338218,51.5434018423057 -0.022525395470505,51.5434003351011 -0.022584411103679,51.5433987164517 -0.022639561829012,51.5433959958362 -0.022686384247354,51.5433937986307 -0.022729185830287,51.543391534607 -0.022808049050192,51.5433890485906 -0.022899462882278,51.5433855499098 -0.022976799838069,51.543382374422 -0.023061352672175,51.5433783869129 -0.023057489323207,51.5433432448939 -0.023198661931826,51.5433369442671 -0.023498784110685,51.5433228647385 -0.023828223478105,51.5433065439988 -0.024024043044026,51.5432975225925 -0.024351906250321,51.5432812556945 -0.024481745624049,51.5432748572847 -0.02455128313846,51.5432721089022 -0.024672402658833,51.5432666831932 -0.024757916898163,51.543262399484 -0.02478739168555,51.5432609842855 -0.024820905527472,51.5432597143505 -0.024868407651366,51.5432580672684 -0.024928861657121,51.5432544986289 -0.02499846126084,51.5432502483428 -0.025082742151805,51.5432453366464 -0.025111177139762,51.5432444200621 -0.025151668545691,51.5432433438099 -0.025197450512251,51.5432418205439 -0.025272797908779,51.54323798689 -0.025321082201271,51.5432350281501 -0.025350382862857,51.5432338364986 -0.025388407032842,51.5432508066248 -0.025446816290945,51.5432768118496 -0.02548829740769,51.5432953157722 -0.025491280663314,51.5433000277541 -0.025500109465908,51.5433084297096 -0.025506601802504,51.5433156017454 -0.025509544886612,51.5433236736288 -0.025515400814555,51.543341681976 -0.025584736547653,51.5433389313864 -0.025587007475531,51.5433188546632 -0.02559884980137,51.5432936907116 -0.025624739053032,51.5432645956968 -0.025651904872421,51.543234528443 -0.025671046149375,51.5432243548489 -0.025692281254224,51.543210354981 -0.025765592742929,51.543170591464 -0.025798382743617,51.5431556554425 -0.025879527071491,51.5431205783402 -0.025974559120029,51.5430819450957 -0.026128966938836,51.5430254889248 -0.026218017794471,51.5429935885145 -0.026308548285116,51.5429620861016 -0.026479084859201,51.5429010912316 -0.02666907814962,51.5428484121817 -0.026926761983511,51.5427828082177 -0.027075752909976,51.542743039295 -0.027271219601633,51.5426901868356 -0.027390485356748,51.5426584198903 -0.027513110706427,51.5426250303122 -0.027569362090847,51.5426112351492 -0.027619332987569,51.542597335376 -0.027711397956593,51.5425718279144 -0.027786426771285,51.5425527509377 -0.027892034532014,51.5425254186318 -0.027986418929388,51.5425016288441 -0.028129406990586,51.542467834158 -0.028208873301743,51.5424499510135 -0.028305341805763,51.5424263830102 -0.028444921332882,51.5423953292447 -0.028537420873889,51.5423735604067 -0.028599924991552,51.5423604290634 -0.028640741900091,51.5423506665105 -0.028745581417668,51.5423272386653 -0.028838781817807,51.5423040623034 -0.028855658599957,51.5423006774487 -0.028953349531861,51.5422803766996 -0.028991250491095,51.5422729445561 -0.029000090762142,51.5423009487624 -0.0290069607842,51.5423192140627 -0.029012292043348,51.5423177217209 -0.029028215917568,51.5423546774567 -0.029038144950555,51.5423819499403 -0.029059706506971,51.5424280451625 -0.029068367171948,51.5424447883685 -0.029105100721168,51.5425120354827 -0.029122119854859,51.5425436058634 -0.029135378549744,51.5425603075266 -0.029144674187847,51.5425800460651 -0.029147027490377,51.5425831907433 -0.029169492956907,51.5426084047419 -0.02917476812133,51.5426223294611 -0.029193704142662,51.5426480219879 -0.029238562897542,51.5427109045601 -0.029292639365175,51.5427896601634 -0.02938554256463,51.5429238877551 -0.029437001055331,51.5429969564304 -0.029459396009806,51.5430222753025 -0.02950947529097,51.5430266605298 -0.029560106683981,51.543052883914 -0.029553710881531,51.5430909668591 -0.029632751039655,51.543130599295 -0.029685202061792,51.5431551004746 -0.029729064419225,51.5431710997079 -0.029858097849034,51.543217454665 -0.029887634307139,51.543227060689 -0.029954065663078,51.543245029263 -0.030173069266525,51.5432992635594 -0.030442439763441,51.5433707826494 -0.030489317725426,51.5433820507468 -0.030591076510416,51.5434058883474 -0.030775923686143,51.5434534975124 -0.030877413128256,51.5434791046099 -0.030933289253432,51.5434947805563 -0.03098755676294,51.5435130427877 -0.031023375293644,51.5435289426387 -0.031102171798888,51.5435726625786 -0.03119399005457,51.5436246357621 -0.031355061425198,51.5437165436933 -0.031530178598422,51.5438188890698 -0.031695145655808,51.543916035337 -0.031945266971076,51.5440618912313 -0.032094124926098,51.5441504765874 -0.032392650324943,51.5443258392662 -0.032561518364755,51.5444247807606 -0.032782305257212,51.5445544007668 -0.032892617881263,51.5446200923432 -0.032918028401246,51.5446337399577 -0.032989971040327,51.5446529753662 -0.033106191197036,51.5446837957306 -0.033115312208797,51.5446860959527 -0.033120496973399,51.5446869336804 -0.033124491827011,51.5446874385325 -0.033132244958036,51.5446869110168 -0.033140537593079,51.5446868826391 -0.033152037083724,51.5446865689442 -0.033173987891374,51.5446864689547 -0.033191303839977,51.5446856888262 -0.033212683288393,51.5446816143739 -0.033228219521512,51.5446794294485 -0.033246074212044,51.5446746844551 -0.033255656091409,51.5446741569825 -0.033265277594343,51.5446729782012 -0.033297100074221,51.5446634896533 -0.033341784085925,51.5446437399735 -0.0333633462979,51.5446349914451 -0.03338291562843,51.544621653832 -0.033450704759818,51.5445589416622 -0.033548750223984,51.5444691014859 -0.033727307642857,51.5443094751289 -0.033854539626116,51.5442050156089 -0.034101784621353,51.5440061091931 -0.034159590541239,51.543956674494 -0.034191149740916,51.5439333352163 -0.03421133272979,51.5439163207239 -0.034248769626352,51.5438868739465 -0.034274523673373,51.5438642746967 -0.034356259867327,51.5437978377567 -0.034391044106113,51.5437734498982 -0.034424142238382,51.5437458189138 -0.034443313131407,51.5437328755286 -0.034486748737776,51.5437002287496 -0.034545315732486,51.5436553694988 -0.03456099036727,51.5436454448865 -0.034572442353785,51.5436363875419 -0.034592293905042,51.5436230418589 -0.034619440647055,51.5436047634579 -0.034745343514176,51.5435445779237 -0.034994875543977,51.5434295460952 -0.035123879051147,51.5433680389378 -0.035148592013397,51.5433573104604 -0.035352786538536,51.5432588618623 -0.035364998898144,51.543251903479 -0.035398407257412,51.5432368114764 -0.035589130575337,51.5431399662201 -0.035614260728621,51.5431256394459 -0.035656538041085,51.5431041939972 -0.035680830181565,51.5430901697347 -0.035791085693559,51.5430293032742 -0.035837222395744,51.5430051390699 -0.035876586369162,51.542982920002 -0.035924583225256,51.542955879532 -0.035941809954787,51.5429478484929 -0.035962439696137,51.5429366486802 -0.036009898998405,51.5429094292231 -0.036110184047657,51.5428504964129 -0.036176756788157,51.5428093358902 -0.03628072402838,51.5427470688654 -0.036341644289034,51.5427107372385 -0.036383846021347,51.5426854674651 -0.0364666043128,51.5426401089439 -0.036584850490457,51.5425684096421 -0.036664240181398,51.5425157950962 -0.03670197829121,51.5424929973188 -0.036750067516153,51.5424637512482 -0.03686008872289,51.5423936425647 -0.036903061355464,51.5423642848176 -0.036977612957567,51.5423142896959 -0.037032242258368,51.5422775647864 -0.037071570119575,51.5422510929648 -0.037120918555663,51.5422179083014 -0.037170642259248,51.5421840779185 -0.037218587841503,51.5421510866153 -0.037271544230742,51.5421150289537 -0.037303863948955,51.5420928599531 -0.037373170011475,51.542045340978 -0.037419665715054,51.542013629345 -0.03746580932223,51.5419820215212 -0.037506565299157,51.5419541257424 -0.037559714303207,51.5419176359346 -0.037604059325922,51.5418873019401 -0.037658552776314,51.5418498615515 -0.03769889054719,51.5418220936126 -0.03773381030739,51.541798476966 -0.037645020200177,51.5417414122862 -0.03751366772254,51.541656669935 -0.037450078952405,51.5416158794256 -0.037435604952858,51.5416042627044 -0.03737731779302,51.5415667873243 -0.037264195590845,51.5414939301089 -0.037179830185719,51.5414395028105 -0.037143903529534,51.5414165797949 -0.037149865679734,51.5414127856281 -0.037188219829282,51.5413880808838 -0.037220510482603,51.5413675139227 -0.037243952615726,51.5413535372618 -0.03725431461762,51.5413476008376 -0.037259296853103,51.5413447273231 -0.037264932262004,51.541343129994 -0.037275750542922,51.5413399619433 -0.037282518384085,51.5413381218543 -0.037296856601616,51.5413356987747 -0.037306430979017,51.5413347940682 -0.037319598829424,51.5413336292825 -0.037337022392056,51.5413330688889 -0.037351018544115,51.5413330986808 -0.037360784538201,51.5413335388785 -0.03742150892097,51.5412814538753 -0.037463761854611,51.5412451974798 -0.037492388857347,51.541221053087 -0.037518071468279,51.5411993441546 -0.037517304601787,51.5411940067808 -0.037516486356187,51.5411850705824 -0.037517559030067,51.5411750553911 -0.037519139725975,51.5411654668489 -0.037528674519246,51.5411478845636 -0.037538719403207,51.541136680308 -0.037626483014689,51.541051518829 -0.037728753595368,51.5409510837645 -0.037779979668242,51.540902003493 -0.037844882513304,51.5408436428901 -0.037891921336776,51.5407996364121 -0.03808386184775,51.5406182653838 -0.038226187509537,51.5404839088642 -0.038371497551358,51.5403474375101 -0.038616561509411,51.540115551065 -0.038717406996529,51.5400194114979 -0.038897729792501,51.5398504961033 -0.039142594569467,51.5396207635818 -0.039363612887139,51.539412851495 -0.03956605555027,51.5392226142202 -0.039713620501515,51.5390854200365 -0.040010788368713,51.5388058233652 -0.040016478735324,51.5388006882196 -0.04007279195111,51.5387477055173 -0.040112635129644,51.5387104017592 -0.040169737986856,51.5386571255456 -0.040244818894633,51.5385866937194 -0.040304225500857,51.5385308066602 -0.04047481422677,51.5383686248908 -0.04063649509551,51.5382147149752 -0.040743450061081,51.5381135760558 -0.040918867913273,51.5379478979065 -0.04111184315476,51.5377652456419 -0.04120643893854,51.5376737183304 -0.041291961594025,51.537591181526 -0.041366405322832,51.5375264028969 -0.041409573860218,51.5374946208471 -0.041493788599206,51.5374425327974 -0.041584382790708,51.5373935978078 -0.0417400393425,51.5373213706088 -0.041982083702251,51.5372096187376 -0.042184795200622,51.5371161697495 -0.042390820538018,51.537021420488 -0.042597165998216,51.5369257427836 -0.042760563276588,51.5368506784713 -0.0428548510156,51.5368071799312 -0.042949496532466,51.5367634714592 -0.043075682642083,51.5367053374342 -0.04323769849521,51.5366300327451 -0.043352995055541,51.5365827671175 -0.043457698254791,51.5365394425877 -0.043584021690011,51.5364711477453 -0.043595505868357,51.5364650892162 -0.043631600750131,51.5364759359697 -0.0436518830028,51.5364829797342 -0.043667479662307,51.5364882215333 -0.043682960575295,51.5364925981079 -0.043696515514215,51.5364953149216 -0.043713334567686,51.5364980105813 -0.043724522299348,51.5364991681932 -0.043762150021214,51.5364982789666 -0.043793029936071,51.5364977440208 -0.04381128704426,51.5364950158826 -0.043827315574655,51.5364919007981 -0.043843803706222,51.5364868104909 -0.043860195876255,51.5364796196999 -0.043874319512357,51.5364729738354 -0.043895132508365,51.5364586257082 -0.043909749235728,51.5364491895443 -0.043929532101555,51.5364370400366 -0.043945689480673,51.5364260756069 -0.04396702341249,51.5364104394076 -0.04398647617575,51.536392904993 -0.044033682493774,51.536355059024 -0.044211220219326,51.5362147853064 -0.04436009628689,51.5360955362497 -0.044408146852523,51.5360584326092 -0.044484994169551,51.5360039509897 -0.044556350678509,51.5359548436023 -0.044592119758096,51.5359315674619 -0.044654599207674,51.5358987138517 -0.044703072745929,51.5358721870927 -0.044734986202962,51.5358570461903 -0.044768013551537,51.5358432007842 -0.044824223482542,51.5358202649785 -0.044858278974493,51.5358097153856 -0.044895813903047,51.5357997713745 -0.044963462614807,51.5357814494617 -0.044968792458823,51.5357804986621 -0.045039816369903,51.5357639352147 -0.04514994726844,51.5357422963459 -0.045302523740063,51.5357110252069 -0.045404646983325,51.5356918147904 -0.045617409845522,51.5356544266301 -0.045759739271146,51.5356292126372 -0.045974562314195,51.5355936368764 -0.046151242237319,51.5355658799554 -0.046370827600026,51.5355357216599 -0.046539284909717,51.5355167246536 -0.046706990739237,51.5354986051768 -0.046885371959378,51.5354811072866 -0.047047050892179,51.535470449872 -0.047103558153542,51.5354669411353 -0.047132957038037,51.5354634266143 -0.047146711039112,51.535458760697 -0.047159980037112,51.5354487495861 -0.047321970692687,51.5354808065678 -0.047390985960877,51.5354850685181 -0.047496128879851,51.5354952701567 -0.047615377604462,51.5355092655466 -0.047702604205829,51.5355213929434 -0.047876981437637,51.5355474268156 -0.047954190281809,51.5355602777293 -0.048024230463866,51.5355752701551 -0.048104181016314,51.5355953912238 -0.048177252160603,51.5356162521719 -0.048230762072208,51.5356345793079 -0.048309740098993,51.5356599456483 -0.048357721262493,51.535677338211 -0.048424646650857,51.535702456464 -0.048507320268367,51.5357376428865 -0.04859142058173,51.5357728520604 -0.048662745058453,51.5358065152336 -0.048694682314222,51.5358270662924 -0.048786311185679,51.5358864251238 -0.048893688972862,51.5359611720759 -0.048964521231568,51.5360063931794 -0.049062603920329,51.5360649696497 -0.049141989969365,51.5361103327689 -0.049227754683446,51.53615669208 -0.049323404544121,51.5362054403292 -0.049383515252401,51.53623446718 -0.049444529343342,51.5362590603583 -0.049527242863544,51.5362933564092 -0.049618682489049,51.5363237929398 -0.04970096655358,51.5363465846692 -0.049801542602206,51.5363726729087 -0.049872637483079,51.536388775204 -0.049958932947131,51.5364054698346 -0.050018415610104,51.5364156688678 -0.050088760533853,51.5364266822429 -0.050154208660291,51.5364362078105 -0.050255617770687,51.5364485813612 -0.050335145612977,51.5364558083117 -0.050408931102535,51.53646152622 -0.050536053365471,51.5364698580492 -0.050551137937417,51.5364713764627 -0.050569362396366,51.5364729461072 -0.050603512510923,51.5364736282084 -0.050698275553801,51.5364707150977 -0.050762178664291,51.536469087215 -0.050836855540669,51.5364649439664 -0.05085286031424,51.5364651071433 -0.050875116886773,51.5364645422853 -0.050913147315695,51.5364616808769 -0.050974967739079,51.5364538853461 -0.051053914740319,51.536443890311 -0.051094282535787,51.5364374175427 -0.051158007567474,51.5364247642497 -0.051242908308645,51.5364100442758 -0.051369759255286,51.5363843777425 -0.051467521638378,51.536365181421 -0.051513083830336,51.5363552516284 -0.051573277014254,51.5363399352445 -0.051653356427683,51.536313137249 -0.051744877798156,51.5362791460973 -0.051823049415376,51.5362474814587 -0.051894900911919,51.5362152728718 -0.051968274076111,51.5361804520095 -0.052056849513674,51.5361362140566 -0.052115320053243,51.5361037829289 -0.052137714294842,51.536090969305 -0.052183283756838,51.5360635978728 -0.052244204009416,51.5360232957161 -0.052332786607691,51.5359623566435 -0.052377115312361,51.5359310086811 -0.052414383326333,51.535899983099 -0.052449631166923,51.5358667261428 -0.052491037875122,51.53582126516 -0.052555439721451,51.5357489360377 -0.052603578516108,51.5356943568981 -0.052627426774788,51.5356639868307 -0.052657490068776,51.5356200953543 -0.052682605167196,51.5355765604856 -0.052705645280968,51.5355321125562 -0.052727923040341,51.53548897117 -0.052742230909803,51.5354509706045 -0.052753665490687,51.5354142415068 -0.052762817569257,51.5353814294246 -0.052766740327941,51.535355563557 -0.052788541520984,51.5352245098161 -0.052812240086846,51.5350840300888 -0.052832361267394,51.5349980867684 -0.052855848411801,51.5349411582362 -0.05285666013429,51.5349386933646 -0.053112511312092,51.5350014817424 -0.053229098544882,51.5350293425474 -0.053347489868539,51.5350555111183 -0.053455273971418,51.5350769917811 -0.053558259713763,51.5350951184354 -0.05367301981737,51.5351127517288 -0.053752192511537,51.5351233632505 -0.053841766096158,51.5351327203312 -0.053970366697669,51.5351435779605 -0.054117047318757,51.5351540081761 -0.054195773092259,51.535159312639 -0.054271634705726,51.5351634786906 -0.054335338307617,51.5351658088732 -0.054374043227869,51.5351668148115 -0.054432284842277,51.535167418503 -0.054454733671861,51.5351670637157 -0.054525020218387,51.5351653242367 -0.054589247147625,51.535162211667 -0.054634251663428,51.5351589616002 -0.054674314352344,51.5351554478282 -0.054686650375468,51.5351531086148 -0.054712211053944,51.5351480825352 -0.054774903584706,51.535133134441 -0.054798180743912,51.5351269796376 -0.054828124336513,51.5351216620899 -0.054858580375035,51.5351179887909 -0.054907667488907,51.5351146247402 -0.054956802461936,51.5351101715633 -0.055016930634884,51.5351114384594 -0.05502687671368,51.5351115495877 -0.055071467723258,51.5351047377286 -0.055087790887986,51.5351027317305 -0.055214869563831,51.5350786607463 -0.05534633770239,51.5350480178626 -0.055600134654019,51.5349835810063 -0.055683449160212,51.5349619676204 -0.055808355538401,51.5349257146192 -0.055987247602445,51.5348724718048 -0.056150407802373,51.5348231556071 -0.056347580475493,51.5347620781571 -0.056458807254803,51.534729796237 -0.056554755452514,51.5346981187116 -0.056670233325848,51.5346587805057 -0.056748278370848,51.5346299119535 -0.056852482052392,51.5345827735153 -0.057006001419882,51.5345092376563 -0.05704409931601,51.5344911324791 -0.057066728310976,51.5344835582729 -0.057191101546608,51.5344467672074 -0.057260960164838,51.5344262974488 -0.057302113413431,51.5344144216364 -0.057361570928078,51.5343973835967 -0.057445054993099,51.5343727935248 -0.057496335153763,51.5343586719304 -0.05756386826255,51.5343394421938 -0.057643793149283,51.5343162147124 -0.057722681729953,51.5342977855142 -0.057744496266995,51.5342902012837 -0.057858973162744,51.5342526520142 -0.057934583902232,51.5342308393119 -0.05807110032555,51.5341985021126 -0.058156471600749,51.5341812870589 -0.058224598365724,51.5341682213041 -0.058313818456422,51.5341561794864 -0.05854372671279,51.5341290618518 -0.058670502939217,51.5341142320524 -0.05871236385728,51.534109194638 -0.058726801136642,51.5341076820778 -0.058758140434083,51.5341047463451 -0.05880038815444,51.5341015300032 -0.058827608292425,51.5340999072661 -0.058877403991527,51.5340972763576 -0.058969913940092,51.5340947316213 -0.059052234013019,51.5340947949189 -0.059176101363107,51.5340952945404 -0.059232242454549,51.5340954870278 -0.059272739919131,51.5340954851364 -0.059299894576558,51.5340956048589 -0.059334796624879,51.5340961307577 -0.059375064229983,51.5340972616806 -0.059475717092515,51.534105588494 -0.05955448319227,51.5341128324706 -0.059628900830011,51.5341205439367 -0.059657821659405,51.5341253131863 -0.059780289709284,51.5341467182135 -0.059934010505049,51.5341710568523 -0.05999486470649,51.5341800803331 -0.060039579309936,51.5341889759601 -0.060073550245343,51.5341960067028 -0.06022762746969,51.5342451054731 -0.060300066955043,51.5342722219975 -0.060329679760235,51.5342854779847 -0.060392628598367,51.534316870659 -0.060426548935509,51.5343357121375 -0.060457303251072,51.5343547817671 -0.060465151273104,51.5343610985265 -0.060525974442805,51.5343941645149 -0.060579112545964,51.5344276653041 -0.060623440919998,51.534456239833 -0.060686525511928,51.5344997484029 -0.060732940345083,51.5345322952402 -0.060791874906157,51.5345779840912 -0.060845738054198,51.5346210333073 -0.060950901261022,51.5347088535694 -0.061070878321012,51.5348135585927 -0.061185990326078,51.5349128800834 -0.061318907860385,51.5350238400742 -0.061427684276853,51.5351155090386 -0.061496873320978,51.5351730205022 -0.061575838229814,51.5352292916933 -0.06167465977847,51.5352881888554 -0.06173626102084,51.5353224018354 -0.061790876860026,51.5353499787715 -0.061864548417934,51.5353813491482 -0.061908523142846,51.5353967666078 -0.061975247440052,51.5354180915798 -0.062154320326736,51.5354619086337 -0.062217609537141,51.535481888926 -0.062289947472551,51.5355050501796 -0.062330360740681,51.535515614673 -0.062429870732568,51.5355314115323 -0.062434645770503,51.5355324805581 -0.062477997578197,51.5354791137078 -0.062514762993187,51.5354337141188 -0.062581512607559,51.5353425645005 -0.06261050663254,51.5353020677116 -0.062674702351748,51.5352167551324 -0.062730201425132,51.5351429566373 -0.062747659627775,51.5351241955354 -0.062763324089328,51.5351009507913 -0.062772316419138,51.5350824669833 -0.062801410613473,51.5350371581308 -0.062817384652388,51.535012665844 -0.06283733919541,51.5349860155124 -0.062846361525867,51.5349725293305 -0.062856364882724,51.5349518311922 -0.062859806153854,51.534942404587 -0.062860639251133,51.534931748755 -0.062860431674789,51.534918706195 -0.062856296859095,51.5348918617667 -0.062837242140952,51.5348230140067 -0.062826701582736,51.534749490608 -0.062811696027801,51.5346497692708 -0.062805230841638,51.5346074452844 -0.062798968086684,51.5345397738768 -0.062796184427258,51.5345157817197 -0.062787547649338,51.5344274098851 -0.062788880576356,51.5343741801125 -0.06277708602535,51.5343022114509 -0.062766924952099,51.5342354782497 -0.062736267896943,51.5341487260926 -0.062705900314415,51.5340770285631 -0.062679992318925,51.5340314524443 -0.062660600196522,51.5339854040324 -0.062544310013055,51.5337909130232 -0.062461000519137,51.5336554940715 -0.062407828998539,51.5335630585265 -0.062377121769936,51.5335029079437 -0.062352278508792,51.5334724909282 -0.062313197495877,51.5334136847198 -0.062246003806765,51.5333455218005 -0.06224053929352,51.5333343184912 -0.062190370241716,51.5332591621445 -0.062242539488136,51.5332391613839 -0.062287901374744,51.5332261898759 -0.062351291574496,51.5332161243035 -0.062365773338682,51.5332108073095 -0.062413026640207,51.5332030682962 -0.062498924866584,51.533194487206 -0.06254085257137,51.5331862895896 -0.062701186525237,51.5331593048692 -0.062818248192957,51.5331441994449 -0.062944239075569,51.5331325282778 -0.063077193939111,51.5331169920074 -0.063154349604902,51.5331114366765 -0.063366183251864,51.5330842609686 -0.063515262586711,51.5330705176286 -0.063585412066596,51.5330664900557 -0.063784169801185,51.5330438437438 -0.063828265947371,51.5330404969852 -0.063925614159205,51.5330280286382 -0.063968508696609,51.5330250333632 -0.064044363170048,51.5330151728134 -0.064115295653455,51.5330093063017 -0.064197243539177,51.5329958423095 -0.064375083541187,51.532976182938 -0.064521871658867,51.5329604553849 -0.064539740660018,51.5329592685768 -0.064582151454082,51.5329536716462 -0.064737247394828,51.5329380819452 -0.06482750445778,51.532924753846 -0.064958129270853,51.5329107506426 -0.065008808920323,51.5329044439151 -0.065021971226709,51.5329327628698 -0.065041945741284,51.5329888265036 -0.065065215727121,51.5330406587224 -0.065085641019068,51.5330789300166 -0.065099013722916,51.5331067101885 -0.065104469666616,51.5331157523268 -0.065109302749667,51.5331252356036 -0.065114282865666,51.5331323409907 -0.065121758061477,51.5331393634817 -0.065128331779094,51.533146495183 -0.065135600201739,51.5331529198538 -0.065141725946712,51.5331573562957 -0.065147018816586,51.5331603869437 -0.065155018088585,51.5331582520204 -0.065162484385271,51.5331551532913 -0.06517120383078,51.5331495699407 -0.065181759473199,51.5331438343613 -0.065206240258735,51.533125841715 -0.065226526977349,51.533111850721 -0.065290429059736,51.5330048698249 -0.065309910003137,51.5329722806888 -0.065328697199217,51.5329401036418 -0.065359107006003,51.5328885597787 -0.065410105780695,51.5327989677079 -0.065464095886315,51.5327058145057 -0.065497153301551,51.5326453155084 -0.065594720294756,51.532477073894 -0.065697720349387,51.5322984429035 -0.065711683890333,51.5322756849516 -0.065765139099242,51.5321836234501 -0.065796583321973,51.5321305795005 -0.065822812378516,51.5320857954075 -0.065849821895298,51.5320398102015 -0.065943197573902,51.5318846955964 -0.065962568766074,51.5318495380662 -0.066005691571141,51.5317777557763 -0.066055619950672,51.5316932849501 -0.066110811451152,51.5316008427727 -0.066160765323309,51.5315153534662 -0.066203094815565,51.5314415913411 -0.066218209218836,51.5313933117775 -0.066226628520811,51.5313516454239 -0.066237474602485,51.5312891636796 -0.066244947551879,51.5312529833264 -0.066251817158271,51.5312312700645 -0.066252581316011,51.5312285498502 -0.06625364366974,51.531220055068 -0.06629484071969,51.53121502109 -0.066306511042617,51.5312136885496 -0.066365927880411,51.53120767828 -0.066422173455857,51.5312019564659 -0.066474953434268,51.5311968680639 -0.066563906330458,51.5311884305922 -0.066614856190709,51.5311840664015 -0.066716643994015,51.5311755285469 -0.066963751996365,51.5311513472405 -0.06748533257265,51.5311072768738 -0.067676114264048,51.5310947950789 -0.068199760079699,51.5310685149043 -0.068468512868732,51.5310618323265 -0.068633846125133,51.5310567787852 -0.068800462532143,51.5310500573663 -0.068899080170329,51.5310462299806 -0.069078092554827,51.5310415667599 -0.069083851283719,51.5310412911873 -0.069275431000295,51.5310367853472 -0.069377017591192,51.5310346188478 -0.069561571679633,51.5310304445816 -0.06957406278862,51.5310303599583 -0.069879805255383,51.5310176716582 -0.070115076970253,51.531006497827 -0.070409849376093,51.5309928315716 -0.070635797466454,51.5309826604504 -0.070848027522686,51.5309747179505 -0.070971380979678,51.5309696514076 -0.071140371783086,51.5309633623026 -0.071322896269683,51.5309536420943 -0.071509879264152,51.5309422729216 -0.07161234462977,51.5309350687234 -0.071705421719488,51.5309251173499 -0.071810511876803,51.5309120291917 -0.071930548940618,51.530896593487 -0.072034576959306,51.5308805236966 -0.072092666429587,51.5308692552104 -0.072179321500431,51.5308476378388 -0.072464841474421,51.5307667682996 -0.072677393878617,51.5307002268437 -0.072828636162301,51.5306569877931 -0.073045361924575,51.5305795163762 -0.073369470966089,51.5304644510183 -0.073671731171455,51.5303551142987 -0.07375885142782,51.5303225090198 -0.073852639946737,51.530287852392 -0.073940324009157,51.5302513813389 -0.074070109866377,51.5301858792133 -0.074200159010968,51.5301204154267 -0.074247017260142,51.5300937727324 -0.074286160117403,51.5300670022966 -0.074386562590141,51.5299960447915 -0.074500632045563,51.5299108634434 -0.074575574246811,51.5298520822909 -0.074644113152474,51.5297902318967 -0.074711964755451,51.5297165152474 -0.074759260241045,51.5296513526101 -0.074826549246316,51.5295628095629 -0.074867566178837,51.5295056927677 -0.074911097983555,51.529445283728 -0.074941586119695,51.5293983668305 -0.074975356080798,51.5293440948606 -0.075049484980517,51.5292201001782 -0.075121506016246,51.5291038511775 -0.075185028971612,51.5290059836196 -0.075217798614742,51.5289472500845 -0.075275088430685,51.5288563194488 -0.075338829364547,51.5287673463204 -0.075415425777375,51.5286693237548 -0.075491098814469,51.5285790654398 -0.075553167598351,51.5285156261088 -0.075639382516385,51.5284288752736 -0.075681775327967,51.5283872119677 -0.075703487772697,51.5283684494337 -0.075715491392182,51.5283581675175 -0.075747373945103,51.528331539826 -0.075804706061847,51.528285869224 -0.075902795327568,51.5282132714541 -0.076016379382239,51.5281338148887 -0.076099501140119,51.5280730185159 -0.076238798068212,51.5279606969323 -0.07631191102806,51.5278993835387 -0.076429059789337,51.5278036670709 -0.076517815026368,51.5277354405278 -0.07659894070535,51.5276775002883 -0.076692119359925,51.5276131185954 -0.076745247149034,51.527579138951 -0.076817413986413,51.5275353784869 -0.076868753403741,51.5275076678394 -0.076907395949036,51.5274836452705 -0.076993677861189,51.5274385912032 -0.07706754471167,51.5273994986449 -0.077109926282672,51.5273769590918 -0.077273665762183,51.5273053249288 -0.077121323470873,51.5272805710098 -0.07695909564762,51.5272527059866 -0.076917833599454,51.5272450676186 -0.076860897740981,51.5272341756536 -0.0767151805503,51.527210445409 -0.076585735192695,51.5271884056222 -0.076338860110561,51.5271478411655 -0.076297288551347,51.5271421794737 -0.076329463025397,51.5270462126796 -0.076373026501668,51.5269343181124 -0.07646470493245,51.5266967667062 -0.076478638657219,51.5266524254408 -0.076489741647394,51.5266091950518 -0.076491497311333,51.5265895435783 -0.076503673877798,51.526564853756 -0.07652752253853,51.5265329753065 -0.07657171334896,51.5264821488361 -0.076609347550934,51.5264493024306 -0.076634436181587,51.5264044931689 -0.076641221587111,51.5263467218998 -0.076631380900092,51.5262018524169 -0.076630729500957,51.5261141126523 -0.076629922840001,51.5258237797241 -0.07662549665765,51.5257224108671 -0.076612072763211,51.5256281306699 -0.076591021127389,51.5254052965165 -0.076555933904365,51.5250682711243 -0.076521280178637,51.5248049109782 -0.076491163474522,51.5245508859481 -0.076460143188777,51.5243182630412 -0.076454090870585,51.5243077447721 -0.075927568774627,51.5243390409633 -0.075897431441415,51.5242395645689 -0.075814535900781,51.5239609410376 -0.075750260261932,51.5237248780108 -0.075741890884621,51.5236813275004 -0.075746872970473,51.523556344463 -0.075773366309805,51.5231973122508 -0.075780078350245,51.5230813457976 -0.075826951801837,51.5230830255337 -0.075929039021131,51.5228122746916 -0.075990955055039,51.5226504931204 -0.0760636291812,51.5224963601624 -0.076120147988416,51.5223689480745 -0.076197927332493,51.5221844190342 -0.076458503258438,51.5220464413138 -0.076559232217515,51.5221221854457 -0.076641258749057,51.5221845687433 -0.076776406454393,51.522164972411 -0.0770815596711,51.5221168729896 -0.077208989593111,51.5220962034834 -0.077347765800865,51.5220627714313 -0.077356620149848,51.5220608438915 -0.077474700972431,51.5220290352399 -0.077626632372692,51.521988925788 -0.077784126813818,51.5219436044052 -0.078028570143983,51.521867734527 -0.078110156938867,51.52188313899 -0.07825228593302,51.521902552416 -0.078279274936246,51.5218469202255 -0.078342559369698,51.5217557056549 -0.078419833323543,51.5216421101392 -0.07848109704265,51.5215644287218 -0.078486707582589,51.5215577501269 -0.078529288180644,51.5215118886985 -0.078567814293955,51.5215175266358 -0.078652597772362,51.5215298878548 -0.078807360843707,51.5215525158103 -0.078926918084105,51.5215699405759 -0.079175141516426,51.5216061647546 -0.079527439714263,51.5216607737218 -0.079825962170532,51.5217108152696 -0.079968304948627,51.5217363190659 -0.080019209714416,51.5217451422206 -0.080036041862722,51.5217481319958 -0.080092063331883,51.5217579993708 -0.080159402546023,51.5217698785544 -0.080182208087799,51.5217739364823 -0.080244486596946,51.5217849152724 -0.080277113074414,51.5217906547354 -0.080331016682616,51.5218002912604 -0.080436674005656,51.5218169076511 -0.080528593070363,51.5218375146856 -0.080661730871332,51.5218751877397 -0.08071025858165,51.5218889859821 -0.080774753945105,51.5219069323608 -0.080815394790663,51.5219182381113 -0.080832886208531,51.5219231378244 -0.080844920593432,51.5219265165279 -0.080857406905976,51.5219300492123 -0.080867068219813,51.5219327847409 -0.08090500178232,51.5219414211578 -0.080999568973028,51.5219633400581 -0.081040997279217,51.5219730282518 -0.081096172563298,51.5218594234072 -0.081118350601647,51.5218128393592 -0.081158819938348,51.5217278008419 -0.081203531264817,51.5216341646183 -0.081230216247278,51.521580324407 -0.081245056927275,51.5215505992814 -0.081258081360503,51.5215240943718 -0.081264692706469,51.5215113295942 -0.081276509402455,51.5214889999952 -0.081282949831541,51.5214767000377 -0.081298031560457,51.5214483367474 -0.081306131247131,51.5214324354074 -0.081312927039965,51.521419774365 -0.081314717496527,51.5214163783665 -0.08132060252137,51.5214053219942 -0.081323054264233,51.521400597812 -0.081328487782143,51.5213899944721 -0.081334613862858,51.5213792729767 -0.0813571750734,51.5213382022751 -0.081372281934739,51.5213108501642 -0.081393182857191,51.5212726838874 -0.081429280358071,51.52121366777 -0.081528771819182,51.5210446792904 -0.081613425160762,51.5209291404477 -0.081706374212576,51.5208148947015 -0.081773317816097,51.5207453727737 -0.08185884386415,51.5206713807606 -0.081941057821373,51.5206051554124 -0.08224711496386,51.5204042329023 -0.082466378973789,51.5202606521 -0.082831233056359,51.520016879586 -0.082976102939769,51.5199314450152 -0.083031715425916,51.519901295828 -0.083123492700486,51.5198515846854 -0.083168173486962,51.5198373787047 -0.083210470269722,51.5198268395983 -0.083247429136775,51.5198215206501 -0.083280086286118,51.5198192311087 -0.083314279964684,51.5198187958029 -0.083336801348169,51.5198218808574 -0.083399189324552,51.5198288697096 -0.083473953190454,51.519843658858 -0.083552836664239,51.5198639415198 -0.083789069899706,51.5199347327735 -0.0851422674704,51.5203225675596 -0.085191778545734,51.5203361764328 -0.085232825739326,51.520348368287 -0.085151969121542,51.5205093611722 -0.085095172327391,51.5206361970788 -0.08502240085496,51.5208044486181 -0.084956137272883,51.5209741732957 -0.084879627426916,51.5211792576768 -0.08484943334281,51.5212723663884 -0.08475029416285,51.5215208075211 -0.084689758851765,51.5216844750934 -0.084603401651844,51.5219153608504 -0.084586937651578,51.5219683841932 -0.084542817474546,51.5221323199893 -0.084534415438033,51.5221759095825 -0.084514941326285,51.5223006219549 -0.084460384418265,51.5225566232799 -0.084434372546874,51.5226805453184 -0.084424737550263,51.5227534938449 -0.084405150618455,51.5230373955335 -0.084391598673074,51.5232558068245 -0.084302809044667,51.5235966519432 -0.084266257202115,51.5237367997768 -0.08421433484792,51.5239299869492 -0.08461711177687,51.5239365710724 -0.085112300249769,51.5239430378566 -0.085201670559935,51.5239444905092 -0.085183505805742,51.5240673279135 -0.085169058182016,51.5241443300725 -0.085151609379299,51.5242314575255 -0.085132031379537,51.5243173460725 -0.085128736539489,51.5243710100413 -0.085126476079626,51.5244331386324 -0.08511921342801,51.5244572795548 -0.085251240771679,51.5244884609741 -0.085370192834474,51.5245168298017 -0.085463768589624,51.5245386375579 -0.085407858385285,51.5246297806973 -0.08533155259449,51.5247544355346 -0.085236047832184,51.524909912972 -0.085132823926457,51.5250683109417 -0.085086409832469,51.5251399797952 -0.085046358822427,51.5252022751891 -0.085025902618249,51.5252242788302 -0.084968958337449,51.5252883296636 -0.084900893282952,51.5253329075875 -0.084837836747926,51.52537452035 -0.084787063561095,51.5254078735198 -0.084745477051681,51.525429192632 -0.084790606629585,51.5255690307223 -0.084808767116393,51.5256275388701 -0.084838577911918,51.5257187288327 -0.084858737687888,51.5257813325397 -0.0848817934621,51.5258395825627 -0.084894728117284,51.5258804075445 -0.08493489188364,51.5260093334826 -0.084971184369395,51.5261141667194 -0.084992598247371,51.5261727287999 -0.084992829016706,51.5261801784996 -0.084996927680654,51.5261988593839 -0.085009964143416,51.5262376068425 -0.085110622356615,51.5262216579732 -0.085261170027181,51.5261897445321 -0.08556063425214,51.5261243023188 -0.085851156371704,51.5260497242389 -0.086082491207648,51.5259916302363 -0.086262306080095,51.5259490883053 -0.086483943501813,51.5258998242544 -0.08665820472019,51.5258482010763 -0.086758654409792,51.5258181117934 -0.086825595051134,51.525805197379 -0.086976946584615,51.5257677346606 -0.086978978204152,51.525779930406 -0.086999093507806,51.5258056423009 -0.087025228677028,51.525829336458 -0.08705740439755,51.5258504853411 -0.087116942287902,51.5258808530871 -0.087149033313264,51.5258948783667 -0.087429522277225,51.5260118186327 -0.087465094150638,51.5260174753856 -0.087522521221081,51.5260583488014 -0.087553344097203,51.526073743549 -0.08763923887124,51.5261215111189 -0.087704096777171,51.5261533673219 -0.087748534657008,51.5261804911554 -0.087796957482022,51.5262161402859 -0.087832236219165,51.5262417612775 -0.087853984333037,51.5263054046826 -0.087904625244228,51.526418804635 -0.087919169985669,51.526447733913 -0.087963434522972,51.5265440444674 -0.08799950222869,51.5266167180537 -0.088038768156575,51.5266993204483 -0.088067292044692,51.526742339028 -0.088094677222796,51.5267847347204 -0.0881332566036,51.5268418973044 -0.088162866436901,51.5268893831482 -0.088201718138455,51.5269400520463 -0.088291692246767,51.5270634673028 -0.088334961735544,51.5271204958844 -0.088352827521546,51.5271459073815 -0.088361770025899,51.5271562338246 -0.08838686192795,51.5271789529523 -0.088454210684266,51.5272456824928 -0.088498568671571,51.5272864115612 -0.088533195743941,51.5273165000724 -0.088581632247411,51.5273538954885 -0.088622847137262,51.5273842784457 -0.088691778914161,51.5274305150839 -0.088731552970195,51.5274524852453 -0.088832844839622,51.5274954266522 -0.088955883442541,51.5275373691225 -0.089049038139864,51.5275673172593 -0.089319313155565,51.527643472976 -0.089490080388152,51.5276858538493 -0.08957744259287,51.5277116460682 -0.089713566302078,51.5277504800199 -0.089823290546488,51.5277824106848 -0.090000371710887,51.5278254863314 -0.090223607956664,51.5278798899945 -0.090392107836129,51.5279254690897 -0.090635170650102,51.5279923584665 -0.090918723280346,51.5280641360539 -0.09097250274273,51.5280755882194 -0.091241719752055,51.5281455461498 -0.091827897086125,51.5282994575335 -0.092144230210068,51.5283781119483 -0.092551852347945,51.5284836347209 -0.093094554950467,51.5286230825632 -0.093581048895136,51.5287483936073 -0.094176693446216,51.5288992738247 -0.094602831740532,51.5290082641093 -0.094935007510368,51.529093514732 -0.095373306595905,51.5292059822174 -0.095351805573879,51.5292446251157 -0.095292823777577,51.5293378452557 -0.095234051291467,51.5294313295518 -0.095156989458105,51.5295552742666 -0.095128240858203,51.5296200049113 -0.095095011931322,51.5296922435661 -0.095084038727082,51.5297221736304 -0.095076986113133,51.5297555450603 -0.09507157799864,51.5297829226155 -0.095066354140054,51.5298159685536 -0.095064056460196,51.5298403292545 -0.095065530395191,51.5298576830034 -0.095062835994935,51.5298805993271 -0.09506387831506,51.5299055259919 -0.095072812718364,51.5299743339043 -0.095083658752151,51.5300159772182 -0.095093611316662,51.5300544001202 -0.095104231902127,51.5300840777047 -0.095122945321911,51.5301223480202 -0.095139725672552,51.530160576127 -0.09519063957252,51.5302631008473 -0.095240028369441,51.5303526423102 -0.095283744679019,51.5304367454269 -0.095301364413777,51.5304638901834 -0.095380408628911,51.5305918877696 -0.095508033883704,51.5307812934207 -0.095735577467641,51.531109926465 -0.095818418825777,51.5312301878997 -0.095911290430067,51.5313747494694 -0.096031856824864,51.5315564455772 -0.096195974550755,51.5317929920785 -0.096390862983051,51.5320770653207 -0.096650340841497,51.5324518747038 -0.096856516120515,51.5327516986026 -0.096979533554285,51.5329246908757 -0.097032514558853,51.5330033116617 -0.096964976970685,51.5330071970797 -0.096838882454082,51.5330411060598 -0.096553224057423,51.5331202935838 -0.096380238106908,51.5331709852717 -0.096294360490048,51.5331985460177 -0.096150506695045,51.5332462051715 -0.095981025506755,51.5333023416017 -0.095632559595592,51.5334237028787 -0.09540916298559,51.5335079620469 -0.095129494091552,51.5336139812978 -0.095025439472862,51.5336530126031 -0.095020809858213,51.5336594264736 -0.094777629518444,51.533751869044 -0.094608975469791,51.5338141085382 -0.094492657650041,51.5338575684377 -0.094487361216906,51.5338544365343 -0.09446848770795,51.5338622500307 -0.094340223758869,51.5339082257354 -0.094247063652225,51.5339429242987 -0.094138408087408,51.5339848167067 -0.093948310557498,51.5340666742028 -0.093790371042584,51.5341316968403 -0.093588821113792,51.5342154753345 -0.093391577783365,51.5342972444276 -0.093246151246391,51.5343571219352 -0.093145912768175,51.5343994353712 -0.092976975975756,51.5344659154935 -0.092869051003329,51.5345157949923 -0.092812014734251,51.5345432062122 -0.09262622759532,51.5346339713138 -0.092398644795046,51.5347442001922 -0.092256835739045,51.5348131539605 -0.092202620431592,51.5348389138775 -0.091925583733578,51.5349689136663 -0.091946671282834,51.5349878851331 -0.091903850782187,51.5350068989079 -0.091847781452162,51.5349607155495 -0.091751456400944,51.5350050671133 -0.091617563390101,51.5350674341728 -0.091593447133419,51.5350919680834 -0.091563528671719,51.5351217014546 -0.091567878353929,51.5351239907535 -0.091549457683847,51.5351339486682 -0.091542025943527,51.5351309167534 -0.091491693176496,51.5351553969467 -0.091529521528177,51.5351851183584 -0.091478625103566,51.5352083187122 -0.091154197855971,51.5353624624507 -0.090812522235766,51.5355234724839 -0.090557675859071,51.5356427685144 -0.090563562959171,51.5356454983553 -0.090397307572856,51.5357257040595 -0.090394939344651,51.5357245117243 -0.090332580505366,51.5357504464847 -0.090282265701901,51.535772640501 -0.090115044724318,51.5358521565023 -0.089913492631799,51.5359480350046 -0.089906070104408,51.5359438529839 -0.08979362806082,51.5359982007159 -0.089689174904959,51.5360432030571 -0.089456980316861,51.5361450118732 -0.089048334599147,51.5363522437205 -0.088733379771324,51.5365117379029 -0.088597835125476,51.5365801398599 -0.088575387433822,51.5365936358266 -0.088542680511615,51.5366079806295 -0.088313206425431,51.5367193716417 -0.088170923526936,51.5367876712564 -0.088049704920555,51.5368455798838 -0.087951696932474,51.5368927765036 -0.087893045825345,51.5369208314801 -0.087836857128831,51.5369473493029 -0.087823565792411,51.5369539299366 -0.087670218380018,51.5370269421414 -0.087647678198691,51.5370379895285 -0.087593196451238,51.5370656096928 -0.087543944624118,51.5370866309905 -0.087514539882104,51.5370957327474 -0.087493617623467,51.5371027553493 -0.087471707082636,51.5371095837669 -0.087434102713131,51.5371200705411 -0.087408778538568,51.5371276651605 -0.087361769640591,51.5371407600553 -0.08732059000659,51.5371527027943 -0.087272469263875,51.5371654198036 -0.087031674872209,51.5372291749884 -0.086942696612216,51.5372505475536 -0.086812946345235,51.5372852406251 -0.086682255037619,51.53729925865 -0.086577376702535,51.5373000850094 -0.086563583917696,51.5373022509463 -0.086563499165997,51.5373438968593 -0.086561710430516,51.5373671449267 -0.086558712480547,51.5374061183449 -0.086559825824203,51.5374178349582 -0.086524841760622,51.5374476892457 -0.086470608462625,51.5375200500564 -0.086461893581707,51.5375528889168 -0.086402731197456,51.5377362490352 -0.086206713930248,51.5382483926165 -0.086031766227963,51.5387217118077 -0.085913040049788,51.5390509968305 -0.085780498914101,51.5394110183202 -0.085634553255377,51.5397937714406 -0.085461515491607,51.54023875715 -0.085293447570124,51.5406773670387 -0.08512124406416,51.5411247127183 -0.084943891218746,51.5415825383392 -0.084751421017496,51.5420864798145 -0.084633951288712,51.5423925853434 -0.084529006348116,51.5426699678971 -0.084449838186807,51.5428751722908 -0.08439024762712,51.5430364647788 -0.084302687739948,51.543267013824 -0.084241048263708,51.5434311575529 -0.084132432374318,51.5437224227666 -0.083984723524987,51.5441027464666 -0.083884863372685,51.5443647503694 -0.08379386867929,51.5446038920552 -0.083663155259923,51.5449460077107 -0.083593914513243,51.5451315567406 -0.083576510865719,51.5451729655785 -0.083569831768782,51.5452029055521 -0.083568015145185,51.5452317992376 -0.083640281872648,51.5456384382929 -0.083688107298614,51.5458892423159 -0.083737121758586,51.5461969008847 -0.083760085749771,51.5463493789517 -0.083789715116356,51.5465852120974 -0.083601531388384,51.5465833066784 -0.083370272962277,51.5465760011107 -0.083238528751546,51.546575018676 -0.08300568526449,51.5465606444281 -0.082694890656358,51.5465420576321 -0.082166993497931,51.5465139181604 -0.080212639189822,51.5463850328136 -0.079803306519355,51.5463514583059 -0.079633914423782,51.5463396660064 -0.079480253684978,51.5463262537768 -0.079251576588407,51.5463059764003 -0.078970110867704,51.5462803247749 -0.0788170213728,51.5462676718986 -0.078477191501324,51.546240311692 -0.078324118090229,51.5462272825316 -0.078273658723908,51.5462238251778 -0.07813007515107,51.5462143326639 -0.078020838585378,51.5462046518457 -0.077790023152237,51.546177950845 -0.077546644184686,51.5461491655061 -0.077335602329709,51.5461250416831 -0.077028441867695,51.5460944563791 -0.076935349717197,51.5460876690159 -0.076696345470624,51.5460694713804 -0.076685438098173,51.5460865696652 -0.076671601420872,51.5461133875626 -0.076619878455945,51.5461783430136 -0.07648821350522,51.5462425017299 -0.076412343897637,51.5462782303863 -0.076324220178079,51.5463143458443 -0.076305137096411,51.5463650930839 -0.076310065799389,51.5464044967186 -0.076331834774478,51.546580340538 -0.076341816265911,51.5467008213698 -0.076357741945115,51.5468589608551 -0.076373468225358,51.5469994905162 -0.076379760353166,51.5470735450855 -0.076374884542661,51.5470998761626 -0.076364539119842,51.5471220087093 -0.076336666462117,51.547157939347 -0.076331295971796,51.5471736969384 -0.076326271776306,51.5472035470658 -0.076335728798212,51.5472248313071 -0.076368112074193,51.5473051829229 -0.076401586644009,51.5474043334077 -0.076446003822562,51.5475341825257 -0.076507850202307,51.5476971856271 -0.076559275298451,51.5478394749404 -0.076576729116782,51.5478720421303 -0.07663081981792,51.547986618726 -0.076653099664652,51.5480388976911 -0.07667923577882,51.5481014555107 -0.076691375601927,51.5481336269742 -0.076710244924257,51.5481702568282 -0.076782815702942,51.5482980005784 -0.076872060367264,51.5484489436157 -0.07693836541973,51.5485509070094 -0.077035847211736,51.5486808939485 -0.077076503923155,51.5487283307043 -0.077320831839666,51.5490386345143 -0.077544840891903,51.5493235131666 -0.077648517268425,51.5494510471522 -0.077677582648897,51.5494829809071 -0.077684723053099,51.5494925843078 -0.077826245155618,51.5496457581313 -0.077909916749746,51.5497532042532 -0.077937605834795,51.5497984027164 -0.077974854999674,51.549852949287 -0.078027001523888,51.549934296105 -0.078115445692153,51.5500710460579 -0.078225786626483,51.5502407170653 -0.07827270649852,51.5503171723714 -0.078394711478267,51.5505018820358 -0.078456565540846,51.5505997375176 -0.078546236624914,51.550746660887 -0.078583104302542,51.5508143372845 -0.078618477587022,51.550873896666 -0.078633419100791,51.5509007356965 -0.078638324144383,51.5509066775534 -0.078641706126194,51.5509124109821 -0.078654251733039,51.5509287324702 -0.078677886684575,51.5509648919708 -0.078690754478942,51.5509867869933 -0.078724918043826,51.5510305443824 -0.078779515684434,51.5510949809421 -0.078861063431699,51.5511821414075 -0.078965634996481,51.5512903534533 -0.079010624441803,51.5513351038955 -0.079088607564469,51.5514080018405 -0.079138998622396,51.5514561572858 -0.079206757310327,51.5515211250522 -0.079251364707411,51.5515635508254 -0.07929971224407,51.5516030325497 -0.079334747564118,51.5516295255462 -0.079378687184407,51.5516591689485 -0.079399193349292,51.5516726613655 -0.079417255893421,51.5516845463008 -0.079439530573449,51.5516989282987 -0.079499254591345,51.5517340632282 -0.07953594494363,51.5517535888027 -0.079568987640151,51.5517659782529 -0.079628042212216,51.5517877165714 -0.079677041236674,51.5518029843928 -0.079692257952903,51.551807567364 -0.079716471063306,51.5518148606937 -0.079751836779597,51.5518245957647 -0.079793225378958,51.5518357199839 -0.079836521488353,51.5518461101757 -0.079871039421838,51.5518545004026 -0.079894333620827,51.5518593281362 -0.079936447728401,51.55186819175 -0.079978945350732,51.551875996903 -0.080014977479753,51.5518824766821 -0.080063556382926,51.5518890145783 -0.080101868034454,51.551893254745 -0.08026119858257,51.5519112178376 -0.080321810903646,51.5519175373393 -0.080395750470897,51.5519238440582 -0.080508470388454,51.5519332977414 -0.080651092502044,51.5519445945791 -0.080699343088266,51.5519495791959 -0.080904453665935,51.5519692706614 -0.081151681724433,51.5519932288499 -0.081495024136369,51.5520240184329 -0.081730352963314,51.5520443993072 -0.081942849174814,51.5520632791329 -0.08215932065503,51.5520735835042 -0.082417733813897,51.5520894578565 -0.082737485691905,51.5521055368775 -0.082780350839305,51.5521088668839 -0.082969588895203,51.5521216889804 -0.083081963256944,51.55213022357 -0.083219964675036,51.5521402222659 -0.083421919107509,51.552151715728 -0.083566549667285,51.5521510762415 -0.083774539196317,51.5521338184952 -0.083979611881792,51.5521142600213 -0.084252302308139,51.5520880228232 -0.084443164575971,51.5520699883433 -0.084606970718609,51.5520534338592 -0.084766747940601,51.5520613209483 -0.084907511247957,51.5520682036882 -0.08497881210223,51.5520782639119 -0.085074321069645,51.552090403275 -0.085164038306064,51.5521026879905 -0.085228473600276,51.5521109524414 -0.085291794567671,51.552118238228 -0.085326313539343,51.55212264859 -0.085356646416168,51.552125789105 -0.085373834633407,51.5521296760862 -0.085398711643925,51.5521341698378 -0.085486698613376,51.5521601281137 -0.085533897320751,51.5521748425818 -0.085582472056705,51.5521967466546 -0.085702697706571,51.5522461008069 -0.085763042401901,51.5522726287118 -0.085830249689041,51.552307908851 -0.086029984356116,51.5524013227298 -0.086104848950006,51.5524356316063 -0.086180853108631,51.5524714904957 -0.086214179564932,51.5524859780401 -0.086274483911932,51.5525100419211 -0.086342524684528,51.5525335109406 -0.086427356959861,51.55255196474 -0.086475954160171,51.5525609319767 -0.086524906036753,51.5525706261957 -0.086569994759784,51.5525804982964 -0.086625337065661,51.5525941430032 -0.086696608917315,51.5526049238148 -0.086732134815237,51.5526129562422 -0.086788419584323,51.5526225300083 -0.08687559454587,51.552640300525 -0.086938409320495,51.5526504619657 -0.086997655225649,51.5526629688235 -0.087057551555304,51.5526783702097 -0.087109187519444,51.5526898678664 -0.087141538523489,51.5526980758363 -0.087190455836591,51.5527104939732 -0.087224672053486,51.5527194230096 -0.08727077713138,51.5527311054582 -0.087299148079081,51.5527388050606 -0.087334485255851,51.5527487982095 -0.087357269806647,51.5527574893001 -0.087369662415879,51.5527613363478 -0.087470375735294,51.5527925583073 -0.087526358072713,51.5528233322976 -0.087565131234314,51.5528446870049 -0.087584372665138,51.5528566942423 -0.08764832222836,51.5528995440461 -0.08770148046443,51.5529351710293 -0.087711392408805,51.5529469279296 -0.087756105450244,51.5529914609155 -0.087774216388503,51.5530084180933 -0.087797822364373,51.5530340358403 -0.087890085446738,51.5531318645786 -0.088043853074968,51.5533015274972 -0.088148383983379,51.5534349269238 -0.088393972139738,51.5537436560751 -0.088460204193343,51.5538239726287 -0.088554370059434,51.5539404968924 -0.088616182167549,51.5539219185702 -0.088807314127225,51.5538699848927 -0.0889373391209,51.5538345654362 -0.088993173764228,51.5538192805314 -0.089041028853365,51.5538062592751 -0.089106670082322,51.5537885507022 -0.089162077287991,51.553773825283 -0.089213724138163,51.5537601266125 -0.089253025012929,51.553749690513 -0.08927484544419,51.5537439098418 -0.089286519785943,51.5537408395255 -0.089294482882921,51.5537477525374 -0.089329802893215,51.5537781993876 -0.089339872896655,51.5537863670574 -0.089382346758334,51.5538197668378 -0.08941014609446,51.5538415210373 -0.089428346867695,51.5538558715369 -0.089461403765883,51.5538821834968 -0.089464105398267,51.5538841861487 -0.089481283664982,51.5538978428195 -0.089493480707378,51.5539058895903 -0.089506434632809,51.5539149459846 -0.089527633217411,51.5539286709087 -0.0895585440397,51.5539486709915 -0.089584374312609,51.5539655370196 -0.089610369424492,51.5539784660628 -0.089620131800667,51.553982957902 -0.089657896096717,51.5539980985952 -0.089707410947539,51.5540185494817 -0.089733185754166,51.5540269219405 -0.089767750948162,51.5540395050882 -0.089794740481126,51.5540488397662 -0.089826607130693,51.5540613797939 -0.089863353827776,51.5540771243158 -0.089882029019029,51.5540823864402 -0.090013278231731,51.5541280991678 -0.090200812765322,51.5541390448105 -0.090356329692935,51.5541513953677 -0.090349522114977,51.5543100643142 -0.090344539861968,51.5544250472109 -0.090341068127354,51.554478532651 -0.090334093485468,51.5545744250195 -0.090327416801716,51.5546690911548 -0.090322929381301,51.5547350220031 -0.090319421987318,51.5547834296297 -0.090316709488366,51.5548187722534 -0.090315067031782,51.5548649108673 -0.090311867079379,51.554913727273 -0.090308095391892,51.5549774108415 -0.090305790234003,51.555008913963 -0.090297088235952,51.5551003708887 -0.09029566194858,51.5551247302146 -0.090274088323479,51.5553396077877 -0.090264951718173,51.5554427552182 -0.09025981481993,51.5555223037807 -0.090257588698287,51.5555590859539 -0.090258496031987,51.5556096149553 -0.090255635493393,51.5557425169311 -0.090251724014983,51.5558636142557 -0.090247800007408,51.5559310704337 -0.090246689320418,51.5559931076582 -0.09024841543942,51.5560255901371 -0.090260102205406,51.5561353538315 -0.090274747111146,51.5562625727404 -0.090279648564755,51.5563297240384 -0.090293199860395,51.5565035131411 -0.090298447497151,51.5565716313875 -0.09030110862993,51.556609417657 -0.090303099044776,51.5566447892684 -0.090306844247925,51.5567395677009 -0.090307672478384,51.5568302114444 -0.090316394159627,51.5569536782837 -0.09033582533655,51.5571049701558 -0.090344603791013,51.5571906509564 -0.090375138929102,51.5574113947741 -0.090389209534532,51.557508264994 -0.090396292830257,51.5575642398396 -0.09040038663116,51.5576138477524 -0.090401958786843,51.5576352596021 -0.090401482584989,51.5576466373851 -0.090399570881799,51.5576569144574 -0.090397088357489,51.5576631823132 -0.090378708380206,51.5576964332833 -0.090355838099481,51.5577346676112 -0.090348741585767,51.5577450139521 -0.090341221336921,51.5577536618763 -0.090324421108773,51.5577658500155 -0.090272983558031,51.5578059540978 -0.090261188465262,51.5578153335829 -0.090281085609296,51.5578230426211 -0.090286697715337,51.557826895702 -0.090295839303855,51.5578317631232 -0.090308510008577,51.5578423066472 -0.090318797913229,51.5578544947499 -0.090333430516741,51.5578734846331 -0.090349374369221,51.5579071601352 -0.090382876552201,51.5579728540268 -0.090449938566671,51.5581213115834 -0.090522194552434,51.5582746620795 -0.090579401586362,51.5584006024038 -0.090651273459831,51.5585539465309 -0.090730779763172,51.5587276078979 -0.090788868403012,51.5588509177387 -0.09081194031327,51.5588986524199 -0.090820200663183,51.5589132111793 -0.090831009068812,51.558931417497 -0.090881477659848,51.5590156580693 -0.090962921229207,51.5591523302776 -0.091041012716718,51.5592769273721 -0.091063340879138,51.559314793965 -0.091119601513665,51.5593988886783 -0.091163107472218,51.5594652264788 -0.091231956179097,51.5595746623731 -0.091289495433623,51.5596640735768 -0.091351048516124,51.5597666245002 -0.091417208542191,51.5598722755439 -0.091458421494974,51.5599380956639 -0.091511792759924,51.5600248040166 -0.091539672905214,51.5600701960314 -0.091553050135629,51.5600915690471 -0.091560895846343,51.560106842201 -0.091563912466445,51.5601177094539 -0.091576387066868,51.5601669089132 -0.091717056444211,51.5602014582397 -0.091785408095979,51.5602196501649 -0.09181456857422,51.5602247400588 -0.0918366330972,51.5602283304254 -0.091916148149214,51.5602393184295 -0.091976915152111,51.5602500010946 -0.092029741341969,51.5602563072133 -0.092059778213127,51.5602595534412 -0.092119251522734,51.560269089091 -0.09215257225215,51.5602769183454 -0.092183940732663,51.5602847544722 -0.09220661579115,51.5602898924466 -0.092256298700364,51.5603010572533 -0.092303102544361,51.560312140094 -0.092360155033376,51.5603258879163 -0.092429731900944,51.5603469113983 -0.092504357971022,51.5603681150542 -0.092546354939554,51.5603800242016 -0.092572293763307,51.5603868464946 -0.092603334553346,51.5603963129299 -0.092637013175123,51.5604069050062 -0.092716336096346,51.5604234332813 -0.09282257598369,51.5604460622651 -0.092894134116656,51.5604537259113 -0.092985618887685,51.5604629781819 -0.093020758064259,51.5604664492841 -0.093052484126607,51.5604693603437 -0.093087012531446,51.5604729473825 -0.093122947387848,51.5604767461444 -0.093157274000291,51.5604803289792 -0.093183656028717,51.5604829012437 -0.093192012150028,51.5604837305553 -0.093246375700773,51.5604868840474 -0.093275132199668,51.5604885641947 -0.093286465973051,51.5604897755792 -0.093294065325927,51.5604907274583 -0.093330793514477,51.5604924590737 -0.093506386150283,51.5604899862627 -0.093568001266043,51.5604889150584 -0.093588078703237,51.5604885519826 -0.093597156972935,51.5604905710468 -0.093609596492657,51.5604941501601 -0.093664660862575,51.5605175833112 -0.093711311163067,51.5605405045577 -0.093835795585372,51.5606026246303 -0.09391769818359,51.56064379334 -0.093959825787186,51.5606647470693 -0.094023689231164,51.5606939579479 -0.094205784098761,51.5607715386615 -0.094299606570418,51.5608116132232 -0.094416867369362,51.5608607440509 -0.09448260058869,51.5608884824139 -0.094546144198683,51.5609109262539 -0.094621099633232,51.5609343065083 -0.094696844422524,51.5609531924525 -0.09474053954789,51.5609602885892 -0.094782351241724,51.560969232642 -0.095083770629122,51.561030736258 -0.095374496851112,51.5610904196309 -0.095592013764882,51.5611345215894 -0.095811290551857,51.5611797803103 -0.095971622100344,51.5612079273935 -0.096017108515511,51.5612154280469 -0.096037552947944,51.5612165111269 -0.096057473025302,51.561215708027 -0.096107834431419,51.5612075112272 -0.096630987362515,51.5611227857617 -0.097051018577148,51.5610533092026 -0.097480361028943,51.5609863294048 -0.097974126865933,51.5609098301936 -0.098461280782594,51.56083380884 -0.098585987549409,51.5608139049715 -0.098610224583435,51.5608541148055 -0.098673456558394,51.5609210611059 -0.098768039130379,51.5610005391586 -0.09890501711891,51.5610974186193 -0.09921383747565,51.5613133293301 -0.09945359384291,51.5614873672663 -0.099580517984199,51.5615727314707 -0.099879676213263,51.5617870969727 -0.100191467635126,51.5619987456986 -0.100349695535772,51.562106484748 -0.10057113763019,51.5622591977846 -0.100781481498978,51.5624034654101 -0.100912679862957,51.562494614867 -0.100988244776286,51.5625469237301 -0.101058718194389,51.5625912626286 -0.101137019278049,51.5626357283288 -0.101182454567471,51.5626590018261 -0.101235102019132,51.5626827680613 -0.101315553651081,51.5627190051921 -0.101401301653394,51.5627583325057 -0.101440254116808,51.5627781205459 -0.101481395785413,51.5628032020103 -0.101563938258672,51.562861634183 -0.101697236264852,51.5629603287368 -0.101797184679669,51.5630381165232 -0.101887003308463,51.563104190087 -0.101954572236432,51.5631532876596 -0.102006103615197,51.5631913829396 -0.102068544764653,51.5632380611291 -0.102143680491321,51.5632940156615 -0.102237937838666,51.5633631130724 -0.102309839320573,51.5634093525861 -0.102499481982401,51.5635197269457 -0.10254892503945,51.5635510913796 -0.102858410840061,51.5637363386329 -0.103135700663239,51.5639069222344 -0.103367134118285,51.5640480048385 -0.103586508432359,51.5641847831316 -0.103721427581254,51.5642691338962 -0.103855527591781,51.5643505360646 -0.103977736621669,51.5644235291996 -0.104209401546823,51.5645607226773 -0.104235889768639,51.5645749043461 -0.104314285427873,51.5646190803646 -0.104377958253045,51.5646531947301 -0.10441609021153,51.5646753630277 -0.104451314281331,51.5646950113271 -0.104480474375984,51.5647105220851 -0.104483415256601,51.5647121100725 -0.104442894502837,51.5647311098532 -0.10442251457187,51.5647410039281 -0.104393578781015,51.56475634582 -0.104374129270473,51.5647666263275 -0.104335509856359,51.5647859787567 -0.104297103900688,51.5648050198859 -0.10428121624408,51.5648145477541 -0.104225447786852,51.5648471143546 -0.104169146424274,51.5648810104063 -0.10408519590389,51.5649333751 -0.103977842143122,51.565000116195 -0.103690062226956,51.5651836511697 -0.103538889798969,51.5652804061194 -0.103376106382618,51.5653852407899 -0.103236344914538,51.5654753159746 -0.10298264908055,51.5656331892858 -0.102817087298438,51.5657373955428 -0.102644200753238,51.5658455575547 -0.102449055388319,51.5659725626552 -0.102260394010764,51.5660932715055 -0.102071373251862,51.5662151387916 -0.101874150966478,51.5663395878445 -0.10175034770939,51.566420027036 -0.101615743154441,51.5665057226969 -0.101461203099268,51.5665992420631 -0.101383185515742,51.5666489966167 -0.1012727141747,51.5667196528263 -0.101098572896828,51.5668313877298 -0.100938630076427,51.5669424721008 -0.100724204819998,51.5670936947555 -0.100528987477549,51.5672424752278 -0.100337045220585,51.5673903088416 -0.100094283189805,51.5675788421668 -0.099667828815622,51.5679038238175 -0.099379735140583,51.5681179904188 -0.099060974194198,51.5683570232799 -0.098889021479604,51.5684871139217 -0.09867558055634,51.5686524546211 -0.098438366971082,51.5688359221797 -0.098237421631621,51.5689893654612 -0.098087553763489,51.5691030459458 -0.098075950290027,51.5691117080927 -0.09757114087153,51.5694885814816 -0.096825677986213,51.5700567193962 -0.096481940131802,51.5703221849275 -0.096283478973496,51.5704772725296 -0.096194486337642,51.5705406047915 -0.096023566608625,51.5706553159184 -0.096047395680711,51.5706726899307 -0.096157467934005,51.570774275405 -0.096215018317174,51.5708260972172 -0.096295427863756,51.570920850188 -0.096314936984771,51.5709607558255 -0.096343704210334,51.5710018468696 -0.096410715497456,51.5710998892193 -0.096452044536692,51.5711617214134 -0.096524409128108,51.5712769993972 -0.096644832576958,51.5714700114165 -0.096695769249525,51.5715301686389 -0.09673264828922,51.5715803235749 -0.096738490449224,51.5715915089383 -0.09675417727318,51.5716150678245 -0.096761281381705,51.5716283797303 -0.096764912029375,51.571638546297 -0.0967684104621,51.5716572743106 -0.096774256601997,51.5716899393119 -0.096778834342227,51.5717071830965 -0.09678722122318,51.5717302826243 -0.096834026100017,51.5718203663883 -0.096886337168699,51.571925196465 -0.097001297737927,51.5721598311818 -0.097021602509459,51.5721984015968 -0.097078137450716,51.5723136595323 -0.097133349127123,51.572410664483 -0.097164953876566,51.5724706982443 -0.097250366578088,51.5726148071001 -0.097344104216293,51.5727780585237 -0.097426644367851,51.5729213130534 -0.097455239552578,51.5729774724372 -0.097503931614379,51.5730875112227 -0.09754415463757,51.5731884811431 -0.097575837203936,51.5732594716178 -0.097599402241842,51.5733058391784 -0.097636591026437,51.5733890247387 -0.097741937884367,51.5736234412807 -0.097635168423316,51.5736455630351 -0.09753920797008,51.5736649132732 -0.097344806711012,51.573723450353 -0.097051544649648,51.5737916939638 -0.096936852099014,51.5738117674728 -0.096816469978948,51.5738231795106 -0.096729366926706,51.5738279341503 -0.096645690665161,51.5738296608279 -0.096601168886682,51.5738289378982 -0.096550744658885,51.5738246911512 -0.096336959311554,51.5737941429173 -0.09626866759431,51.5737830943785 -0.096157625229619,51.5737552431301 -0.096100454291461,51.5737412906693 -0.09591782087415,51.5737040679782 -0.095605417271757,51.5736557514109 -0.095554516973972,51.5736497105735 -0.095445255267206,51.5736388097248 -0.095321171498661,51.5736259026948 -0.095080303643405,51.5736061284529 -0.094764652461082,51.5735894636433 -0.094743123198948,51.5735871371494 -0.094725114723809,51.573586754515 -0.094695018223004,51.5735893200899 -0.09466154413466,51.5735967721609 -0.094630001481155,51.5736097365758 -0.094572366132966,51.5736325031662 -0.094280219565156,51.5737460697446 -0.09427711265972,51.5737473789068 -0.094166308906528,51.5737891535343 -0.094023802119246,51.5738406047374 -0.093857461825772,51.5738998937037 -0.093797309190731,51.5739194437301 -0.093760668540986,51.5739314518452 -0.093669098235753,51.5739536445773 -0.09348136135949,51.5739846640845 -0.093397324977761,51.573995510941 -0.093235599719128,51.5740152538288 -0.093157489968589,51.5740227572694 -0.093013261773255,51.5740369941748 -0.092917086119257,51.5740393403786 -0.092821167241233,51.5740346153371 -0.092723996234848,51.5740270839487 -0.092563912653235,51.5740145396702 -0.092357451934224,51.5739930149438 -0.09219205742717,51.5739759279065 -0.092157152948885,51.5739688483027 -0.092131375761208,51.5739670573921 -0.092077567671741,51.5739648102371 -0.09204457297602,51.5739646167137 -0.091778674986639,51.5739702279571 -0.091587919624959,51.5739787885608 -0.091441641318655,51.5739917617821 -0.091400216524261,51.5739974486456 -0.09132893944029,51.574009888437 -0.091238930704568,51.5740315642842 -0.091107054537695,51.5740676352161 -0.091058651045853,51.5740797252307 -0.090948714416681,51.5741171766302 -0.090685614127248,51.5742038423552 -0.090634978562555,51.574221395702 -0.090364051160041,51.5743126750307 -0.090259201358415,51.5743366316986 -0.090001454531975,51.5743802511975 -0.089810939225035,51.5743959520874 -0.089634953095754,51.5743981883651 -0.089518154738482,51.5743920790197 -0.089395825177673,51.5743837922266 -0.089141070362829,51.5743593920049 -0.088886892799475,51.5743338271009 -0.088734754069854,51.5743245077657 -0.088584256506564,51.574320518817 -0.08849468474851,51.5743243224845 -0.088293954584227,51.5743429846651 -0.088189045911005,51.5743599189446 -0.087992885159169,51.5743887178455 -0.087831158413724,51.5744011109179 -0.087760200196676,51.574403843593 -0.087721077788145,51.5744043690244 -0.087652640610639,51.5744031122834 -0.087606277532856,51.5744009296876 -0.087540628695038,51.574394334508 -0.087428272095122,51.5743822489219 -0.087355214211033,51.574374174871 -0.087259626732563,51.5743614751632 -0.087155294290807,51.5743483188328 -0.086946439977153,51.5743172717941 -0.086858708843036,51.5743001416224 -0.086846269503091,51.5743375231429 -0.08684464229424,51.574341119701 -0.086848292018958,51.5743596950153 -0.086859520922094,51.5743846043112 -0.086871111726963,51.574398651065 -0.086884504373085,51.5744115779711 -0.086888090441237,51.5744143675475 -0.086912255714699,51.5744329116806 -0.08691821122588,51.5744363595152 -0.086959431347346,51.5744607223096 -0.087005593826328,51.574476391673 -0.087092569886841,51.5745032402833 -0.087150261694331,51.5745040468302 -0.087155585405198,51.5745168465281 -0.08718308468223,51.5745753658102 -0.087187938613716,51.5745855347017 -0.087220034532456,51.5746512070461 -0.087243548558106,51.5746975671452 -0.08720092555342,51.5746985568611 -0.087149970668706,51.5747018314075 -0.087099046706231,51.5747073617783 -0.087032617913648,51.5747132964637 -0.086754083667578,51.5747434882221 -0.086644047606523,51.5747594903744 -0.086435985058823,51.5747871977213 -0.086089567505561,51.5748405552919 -0.085831143153483,51.5748814515871 -0.085747917764518,51.5749520405383 -0.085717856953101,51.5749805049145 -0.085659022380709,51.5750400841009 -0.085503464507492,51.5750564452046 -0.085234549565815,51.5750805334927 -0.085055709286424,51.5750975730403 -0.084892774336613,51.575112021368 -0.084513339116663,51.5751369686564 -0.084487018908559,51.5751350025105 -0.084363318110622,51.5751439919597 -0.084285745996729,51.575151006999 -0.084204316868158,51.5751586603568 -0.084085107640034,51.5751684612332 -0.084008558976994,51.5751730639195 -0.084006768349622,51.5751684870839 -0.083911433332297,51.5751746494243 -0.083808792944425,51.5751830788741 -0.083766916095652,51.5751847699805 -0.08376435274828,51.5751668480701 -0.083440534415753,51.5752080471822 -0.083209528501785,51.5752433149243 -0.083006913824856,51.5752731232098 -0.082939595268418,51.5752834282207 -0.082868433515982,51.5752930120633 -0.082802152143117,51.5753037728024 -0.082753671560775,51.5753097798756 -0.082586129110331,51.5753175681928 -0.082427365736008,51.5753342731095 -0.082289555165971,51.5753512316595 -0.082270188034216,51.5753553426935 -0.082225249887526,51.5753640369567 -0.082213419466983,51.5753666616395 -0.082171841100481,51.5753752166237 -0.08215027868776,51.575382763758 -0.082102745695628,51.575398697723 -0.082072185135586,51.5754122134549 -0.082065553479294,51.5754158224659 -0.081984540315466,51.5754296581194 -0.081940021388281,51.5754381954701 -0.081902594775266,51.5754441807796 -0.081816083216346,51.5754601726771 -0.081698951768711,51.5754809986116 -0.081611326655174,51.5754957725174 -0.081504237372533,51.5755144523517 -0.081435474383745,51.5755262416979 -0.081405406244182,51.5755286971926 -0.081316150165354,51.5755456265128 -0.08131738932382,51.575548313981 -0.080838618628386,51.5756394471012 -0.080839031479693,51.5756242915741 -0.080839637481771,51.575588503175 -0.080733027165385,51.5755837231848 -0.080509836428257,51.5755718477013 -0.08034846486527,51.5755641812672 -0.080192762895196,51.5755558808909 -0.079902564296451,51.5755414272502 -0.079829480630453,51.5755381237621 -0.079833136170021,51.5755114659614 -0.079534608090566,51.5754881636982 -0.079324446237525,51.5754707890272 -0.079241376719259,51.575462188494 -0.079155891564037,51.5754524521081 -0.079039105851499,51.5754419831735 -0.078890140838188,51.575426599115 -0.078786698953358,51.5754138334387 -0.078533915043796,51.5753743957419 -0.078405294728007,51.5753526793092 -0.078010985466093,51.5752897035016 -0.078019700407223,51.5752730365358 -0.077867458241109,51.5752435590509 -0.07755618794143,51.5751840398338 -0.077532417944923,51.575233017561 -0.077310733389162,51.5751918724951 -0.07716309418614,51.5751647573289 -0.077031661773672,51.5751384339802 -0.077042658704009,51.5751143055853 -0.077047074149657,51.5751150398942 -0.077068825954529,51.575073618014 -0.076876045513796,51.5750371126673 -0.076818028163783,51.5750271670558 -0.076816444955997,51.5750313091523 -0.076615880028247,51.5749957718244 -0.07645364959952,51.5749694189519 -0.07633509411016,51.5749500740171 -0.076242865096838,51.574935172739 -0.076241022893065,51.5749369347268 -0.076229644965441,51.5749501064845 -0.076197527606024,51.5749850973939 -0.076147736541934,51.5750435026988 -0.076094551554817,51.5751046660559 -0.076058419395485,51.5751397178135 -0.07603637643524,51.5751667753209 -0.076009936258922,51.5751937606326 -0.07595605695053,51.5752583396166 -0.075924018293847,51.5753006562335 -0.07589384618991,51.5753378624079 -0.075835990486582,51.5754184854289 -0.075783876443205,51.5754933754806 -0.07563421967497,51.5754422491428 -0.075405857740307,51.5753634978936 -0.075370555841277,51.575351126112 -0.075298306544915,51.575326595594 -0.075206638899266,51.5753304910062 -0.075182643637676,51.5753300699169 -0.07518734275408,51.5753628577534 -0.075191114365344,51.5753735804516 -0.075192976245857,51.5753878688311 -0.0751910601531,51.5754082371184 -0.075183664206989,51.5754500122591 -0.075179471320207,51.5754659565506 -0.075168418434528,51.5754942915071 -0.075162512317827,51.5755091105323 -0.075146191528308,51.5755371384473 -0.075027186140397,51.5755489072898 -0.074961331546558,51.5755558271349 -0.074828776784042,51.5755676798578 -0.074828230348216,51.575563941667 -0.074514164307671,51.5755971954505 -0.074407593038646,51.5756081796858 -0.074426286299002,51.5756774561839 -0.074364750419844,51.575683464675 -0.074350140531703,51.5756146545301 -0.073879894752905,51.5756569649516 -0.073734226706231,51.5756726754632 -0.073738450977549,51.5757023942854 -0.073610417603309,51.5757086645465 -0.073599707995036,51.5756205277115 -0.073506937411867,51.575624925222 -0.073502841539377,51.5756053557098 -0.073429388081016,51.5756109816538 -0.073201483061442,51.575622316247 -0.073084513007135,51.5756328963133 -0.073013783999953,51.5756405073931 -0.072919698254524,51.5756510247432 -0.072865264577592,51.5756562715642 -0.072831750723457,51.5756579137395 -0.072797960518812,51.57565779691 -0.072786324560926,51.5756582638151 -0.072777880561982,51.5756581249544 -0.072517864048596,51.5756132679225 -0.072350568579345,51.5756401288121 -0.07220695142446,51.5756646659153 -0.072204176667209,51.5756669412549 -0.072199313353439,51.5756684718244 -0.072192650645762,51.5756699961746 -0.072022328232529,51.5756935164319 -0.071881769137123,51.5757138148966 -0.071854489422851,51.5756236588112 -0.071849311844372,51.575607570433 -0.071736910012282,51.5756176532957 -0.07157160107238,51.5756321674892 -0.071487332311103,51.5756390162 -0.071386714404198,51.5756478259574 -0.07138734323627,51.5756502238363 -0.071247328054849,51.5756643130254 -0.07114763888471,51.5756738869482 -0.071122566376827,51.5756768887647 -0.071123313959089,51.5756796860721 -0.071045973106845,51.5756890755956 -0.070972800422496,51.5756962072972 -0.070865466588463,51.5757119886276 -0.070738972362871,51.5757289759851 -0.070677215886214,51.575747006511 -0.070591383999758,51.575771518172 -0.070541040446981,51.575785824751 -0.070534146365507,51.5757885861769 -0.070524943825962,51.575791400421 -0.070514343386687,51.5757928031937 -0.0704962435489,51.5757952425369 -0.070492790623574,51.5757954662555 -0.070469079647233,51.5757996450007 -0.070401754962744,51.5758097673529 -0.07029765358861,51.5758260222544 -0.070103089285005,51.5758548041382 -0.06999843439929,51.5758711404909 -0.069979253754716,51.5758745979033 -0.069852139268667,51.5758958896588 -0.069408851992957,51.5759753674153 -0.069214011223262,51.5760107528652 -0.069085985114335,51.5760343677688 -0.068962387717954,51.5760553325518 -0.068900207077254,51.5760663472588 -0.068811722902496,51.5760797063071 -0.068735045417945,51.5760915683475 -0.068701818738991,51.5760964370372 -0.068641677227827,51.5761026813685 -0.068439359188971,51.576127990233 -0.068378173112731,51.5761357243753 -0.06828629398884,51.5761470792831 -0.068255445219676,51.5761502874591 -0.068224531155739,51.5761530838397 -0.068191422294178,51.5761581542519 -0.068009039275901,51.5761872978812 -0.06781256146325,51.5762194382145 -0.067766546884145,51.5762259792574 -0.067631224410106,51.5762405078524 -0.067630653482169,51.5762386207883 -0.067580906524681,51.5762438709609 -0.067441671556892,51.5762574068226 -0.0673812237888,51.5762642727709 -0.067251095519205,51.5762782165912 -0.067063995191713,51.5763035068088 -0.066729752886818,51.5763427823151 -0.066717350729272,51.5763948410452 -0.066736115961257,51.5764199907056 -0.06675100117788,51.5764384146712 -0.066748239850715,51.5765165148649 -0.066749009949054,51.5766432639118 -0.066368747136149,51.5767114669317 -0.066193174211372,51.5767380267827 -0.065836701807422,51.5768034379579 -0.065534042163263,51.5768580814375 -0.065226926245941,51.5769140228842 -0.064897039153134,51.5769750705335 -0.064598356047884,51.5770266936778 -0.064392621784257,51.5771118209546 -0.064278372426179,51.5771410835405 -0.064138262558807,51.5771770439184 -0.064061714991688,51.5771968947752 -0.064045952279717,51.5771741727961 -0.064038819399714,51.5771759812466 -0.06387647456733,51.5772053081572 -0.063790396310072,51.5772214359013 -0.06379142143861,51.5772238394667 -0.063649305612791,51.5772543427009 -0.063573951984531,51.5772672778593 -0.063487991304358,51.5772859333486 -0.063416039191591,51.5772983625444 -0.063323201122952,51.5773172244664 -0.063320427637649,51.5773078344392 -0.063282915079259,51.5773151220606 -0.063289847025456,51.5773284439973 -0.063146376703822,51.5773587785756 -0.06314494037605,51.5773552513302 -0.063037914079075,51.5773763039742 -0.063022626991575,51.5773797357204 -0.062912522395803,51.5774030574938 -0.06291382821979,51.577406123064 -0.06276221029598,51.5774365222148 -0.062757342838072,51.5774267900314 -0.062723604824748,51.577433690205 -0.062727437605531,51.5774434187844 -0.06270973139903,51.5774458689967 -0.062659227985238,51.5774563445934 -0.0624948406983,51.5774900143635 -0.062491649034695,51.5774822837362 -0.062458613285017,51.5774891963373 -0.062463072913276,51.5775002374136 -0.062317064943109,51.5775311666312 -0.062315083881432,51.577528062918 -0.062092985021397,51.5775726423851 -0.06209526275779,51.5775758966855 -0.061956541449898,51.5776041078157 -0.061963637737932,51.57761929402 -0.061694549875367,51.5776750319914 -0.061695861203306,51.5776803431215 -0.061500561729495,51.5777196145985 -0.061403996302897,51.5777396112107 -0.061158761716309,51.5777860114155</coordinates></LinearRing></outerBoundaryIs></Polygon>
        </Placemark>
    </Document>
</kml>