<?xml version="1.0" encoding="UTF-8"?>
<kml xmlns="http://www.opengis.net/kml/2.2">
    <Document>
        <Style id="ourPolygonStyle">
            <LineStyle>
                <color>70ff0000</color>
                <width>2</width>
            </LineStyle>
            <PolyStyle>
                <color>3dff5500</color>
            </PolyStyle>
        </Style>
        <Placemark>
            <styleUrl>#ourPolygonStyle</styleUrl>
            <name>Islington Borough Council</name>
            <Polygon><outerBoundaryIs><LinearRing><coordinates>-0.11927008697206,51.5750934779714 -0.119202553510882,51.574986460739 -0.119233238732817,51.5749725206121 -0.119019396230758,51.5748305459137 -0.119017261484102,51.5748261818239 -0.118955789410413,51.5747843750882 -0.118896999151514,51.5747442740202 -0.118877007739295,51.5747307957515 -0.119461589254286,51.5744283368848 -0.119541216464196,51.5743873602162 -0.119554704484698,51.5743804228844 -0.119399792302374,51.5743760075951 -0.119088629270972,51.5743736358061 -0.119038170939768,51.5743721057265 -0.118943795882125,51.5743692942552 -0.118682614927386,51.5743374711548 -0.118453810168483,51.574302174907 -0.118365221842044,51.5742875560466 -0.118226667147898,51.574266560134 -0.118176548605203,51.5742598179601 -0.118046674880959,51.5742370856705 -0.118001488968705,51.5742286313036 -0.117969061525263,51.5742226640175 -0.117859384555937,51.5742023428844 -0.117682289930021,51.5741680953139 -0.117573017504286,51.5741467903342 -0.117560318790615,51.5741434516661 -0.117553791200517,51.5741418873793 -0.117551359581708,51.5741419562452 -0.117504109350075,51.5741037466602 -0.117402883359641,51.5740218958948 -0.117303496023078,51.5739416581344 -0.117228284860561,51.5738810739906 -0.117163948169737,51.5738286209693 -0.117155954430018,51.5738225144012 -0.117150880016908,51.5738184366559 -0.117074858504992,51.5737573564969 -0.117072385417242,51.5737451526746 -0.116963429913824,51.5736775293281 -0.116952745266733,51.5736778756788 -0.116811068640695,51.5735734069608 -0.116809132613245,51.573567802334 -0.116793894683096,51.5735495708406 -0.116783478213088,51.5735384650861 -0.116780460736132,51.5735314069907 -0.116657781998244,51.5734416078027 -0.116569357002376,51.5733776599731 -0.116533907529641,51.5733486967597 -0.116498168383864,51.5733248249101 -0.116468329895449,51.5733022852128 -0.116352501260806,51.5732257238372 -0.116304376755669,51.5731945048171 -0.116222209136138,51.5731412287912 -0.116215469563964,51.5731361728435 -0.116209104275026,51.5731300914738 -0.116182384122674,51.5731121376051 -0.116096191659178,51.5730521999395 -0.116009044907861,51.5729805440764 -0.115981349740347,51.5729569595948 -0.115932896300395,51.5729205132019 -0.11578988468387,51.5728184280979 -0.115748609454254,51.5727681191023 -0.115661438319221,51.572676618893 -0.115551166149714,51.5725812240353 -0.115879622207138,51.572334327502 -0.11608049301494,51.5721843275919 -0.115966496582472,51.5721244123928 -0.115503373275961,51.5719357300095 -0.115363051239435,51.5718787101384 -0.115364006627827,51.5718680954998 -0.115467299136266,51.5717454090297 -0.115568947691821,51.5716249513603 -0.115559807357857,51.5716209385726 -0.115432908606321,51.5715518930921 -0.115451110454782,51.5715367231447 -0.115355878676258,51.5714894484245 -0.115225464826505,51.571442895716 -0.115137416475121,51.571413014434 -0.115145416792209,51.5713566038064 -0.115141452410716,51.5711984893063 -0.115132792473997,51.5709781019821 -0.115126051495605,51.5708340610077 -0.115149026375256,51.5708035043978 -0.115143416039035,51.5706774206805 -0.115042941553741,51.5706311440681 -0.115020059520581,51.5705898918692 -0.114790638316575,51.5704820428841 -0.114443392592403,51.5703222345583 -0.113585650167131,51.5699407957312 -0.113259228429556,51.5698008810936 -0.112909262979686,51.5696480087365 -0.112561186418772,51.5694932736912 -0.112094419807281,51.56928899478 -0.111684261786733,51.5691062177147 -0.111376255845797,51.5689484132839 -0.110690713568063,51.568612833936 -0.110681751362054,51.5686084468365 -0.110646433460328,51.568590796381 -0.110595155406972,51.5685650598133 -0.110488021319955,51.5685049429756 -0.110240550705905,51.5683615828137 -0.110074192906561,51.5682646802522 -0.109912683715024,51.5681705362819 -0.109772838491011,51.5680884927977 -0.10960759655059,51.5679929483143 -0.109594217244121,51.567984779594 -0.10940131747867,51.5678732380617 -0.109262770710104,51.5677918335635 -0.109097764437833,51.5676950754423 -0.109022492641929,51.5676509616298 -0.108945608006814,51.5676061122401 -0.108858559966608,51.5675508509861 -0.10870735085086,51.5674402173413 -0.108589541528759,51.5673614144942 -0.108422408608949,51.5672434680103 -0.108311524601817,51.567165189321 -0.108211658106819,51.5670924483064 -0.108136231991166,51.5670382090725 -0.10812607849557,51.5670303421745 -0.108084292193086,51.5670003529127 -0.108078530144968,51.5669955307268 -0.10807113602906,51.5669908512592 -0.108053668969723,51.5669742415495 -0.108045221021679,51.5669676962008 -0.107942677152365,51.5668778105724 -0.107839441924296,51.5667905826767 -0.107703431006161,51.5666721060901 -0.107630595998325,51.5666096963223 -0.107577485998423,51.5665542288761 -0.107507326519366,51.5664922345101 -0.107486590585079,51.566476034148 -0.107405211023604,51.5664147461294 -0.107323796468082,51.5663488469971 -0.107281235784226,51.5663180733564 -0.10727834719129,51.5663161247869 -0.107136502894341,51.5662077229729 -0.10705089545295,51.5661422208405 -0.106959725697494,51.5660832266541 -0.106920462974686,51.5660568207655 -0.1068936681144,51.5660328841506 -0.106784145260368,51.5659538007667 -0.106719153719207,51.5659096604613 -0.106622569559384,51.5658456299287 -0.106534736458613,51.5657864698634 -0.106206406881613,51.5655599062205 -0.10617871537756,51.5655413172087 -0.105745743295907,51.5652527365814 -0.105489359767553,51.5650827654468 -0.105203316214276,51.5648887204282 -0.104964014938013,51.564726677774 -0.104884650738933,51.5646712746048 -0.10482542803152,51.5646473167505 -0.104577617216985,51.5647671995189 -0.104453793756657,51.564827223424 -0.104375999765473,51.564767758169 -0.104374129270473,51.5647666263275 -0.104393578781015,51.56475634582 -0.10442251457187,51.5647410039281 -0.104442894502837,51.5647311098532 -0.104483415256601,51.5647121100725 -0.104480474375984,51.5647105220851 -0.104451314281331,51.5646950113271 -0.10441609021153,51.5646753630277 -0.104377958253045,51.5646531947301 -0.104314285427873,51.5646190803646 -0.104235889768639,51.5645749043461 -0.104209401546823,51.5645607226773 -0.103977736621669,51.5644235291996 -0.103855527591781,51.5643505360646 -0.103721427581254,51.5642691338962 -0.103586508432359,51.5641847831316 -0.103367134118285,51.5640480048385 -0.103135700663239,51.5639069222344 -0.102858410840061,51.5637363386329 -0.10254892503945,51.5635510913796 -0.102499481982401,51.5635197269457 -0.102309839320573,51.5634093525861 -0.102237937838666,51.5633631130724 -0.102143680491321,51.5632940156615 -0.102068544764653,51.5632380611291 -0.102006103615197,51.5631913829396 -0.101954572236432,51.5631532876596 -0.101887003308463,51.563104190087 -0.101797184679669,51.5630381165232 -0.101697236264852,51.5629603287368 -0.101563938258672,51.562861634183 -0.101481395785413,51.5628032020103 -0.101440254116808,51.5627781205459 -0.101401301653394,51.5627583325057 -0.101315553651081,51.5627190051921 -0.101235102019132,51.5626827680613 -0.101182454567471,51.5626590018261 -0.101137019278049,51.5626357283288 -0.101058718194389,51.5625912626286 -0.100988244776286,51.5625469237301 -0.100912679862957,51.562494614867 -0.100781481498978,51.5624034654101 -0.10057113763019,51.5622591977846 -0.100349695535772,51.562106484748 -0.100191467635126,51.5619987456986 -0.099879676213263,51.5617870969727 -0.099580517984199,51.5615727314707 -0.09945359384291,51.5614873672663 -0.09921383747565,51.5613133293301 -0.09890501711891,51.5610974186193 -0.098768039130379,51.5610005391586 -0.098673456558394,51.5609210611059 -0.098610224583435,51.5608541148055 -0.098585987549409,51.5608139049715 -0.098461280782594,51.56083380884 -0.097974126865933,51.5609098301936 -0.097480361028943,51.5609863294048 -0.097051018577148,51.5610533092026 -0.096630987362515,51.5611227857617 -0.096107834431419,51.5612075112272 -0.096057473025302,51.561215708027 -0.096037552947944,51.5612165111269 -0.096017108515511,51.5612154280469 -0.095971622100344,51.5612079273935 -0.095811290551857,51.5611797803103 -0.095592013764882,51.5611345215894 -0.095374496851112,51.5610904196309 -0.095083770629122,51.561030736258 -0.094782351241724,51.560969232642 -0.09474053954789,51.5609602885892 -0.094696844422524,51.5609531924525 -0.094621099633232,51.5609343065083 -0.094546144198683,51.5609109262539 -0.09448260058869,51.5608884824139 -0.094416867369362,51.5608607440509 -0.094299606570418,51.5608116132232 -0.094205784098761,51.5607715386615 -0.094023689231164,51.5606939579479 -0.093959825787186,51.5606647470693 -0.09391769818359,51.56064379334 -0.093835795585372,51.5606026246303 -0.093711311163067,51.5605405045577 -0.093664660862575,51.5605175833112 -0.093609596492657,51.5604941501601 -0.093597156972935,51.5604905710468 -0.093588078703237,51.5604885519826 -0.093568001266043,51.5604889150584 -0.093506386150283,51.5604899862627 -0.093330793514477,51.5604924590737 -0.093294065325927,51.5604907274583 -0.093286465973051,51.5604897755792 -0.093275132199668,51.5604885641947 -0.093246375700773,51.5604868840474 -0.093192012150028,51.5604837305553 -0.093183656028717,51.5604829012437 -0.093157274000291,51.5604803289792 -0.093122947387848,51.5604767461444 -0.093087012531446,51.5604729473825 -0.093052484126607,51.5604693603437 -0.093020758064259,51.5604664492841 -0.092985618887685,51.5604629781819 -0.092894134116656,51.5604537259113 -0.09282257598369,51.5604460622651 -0.092716336096346,51.5604234332813 -0.092637013175123,51.5604069050062 -0.092603334553346,51.5603963129299 -0.092572293763307,51.5603868464946 -0.092546354939554,51.5603800242016 -0.092504357971022,51.5603681150542 -0.092429731900944,51.5603469113983 -0.092360155033376,51.5603258879163 -0.092303102544361,51.560312140094 -0.092256298700364,51.5603010572533 -0.09220661579115,51.5602898924466 -0.092183940732663,51.5602847544722 -0.09215257225215,51.5602769183454 -0.092119251522734,51.560269089091 -0.092059778213127,51.5602595534412 -0.092029741341969,51.5602563072133 -0.091976915152111,51.5602500010946 -0.091916148149214,51.5602393184295 -0.0918366330972,51.5602283304254 -0.09181456857422,51.5602247400588 -0.091785408095979,51.5602196501649 -0.091717056444211,51.5602014582397 -0.091576387066868,51.5601669089132 -0.091563912466445,51.5601177094539 -0.091560895846343,51.560106842201 -0.091553050135629,51.5600915690471 -0.091539672905214,51.5600701960314 -0.091511792759924,51.5600248040166 -0.091458421494974,51.5599380956639 -0.091417208542191,51.5598722755439 -0.091351048516124,51.5597666245002 -0.091289495433623,51.5596640735768 -0.091231956179097,51.5595746623731 -0.091163107472218,51.5594652264788 -0.091119601513665,51.5593988886783 -0.091063340879138,51.559314793965 -0.091041012716718,51.5592769273721 -0.090962921229207,51.5591523302776 -0.090881477659848,51.5590156580693 -0.090831009068812,51.558931417497 -0.090820200663183,51.5589132111793 -0.09081194031327,51.5588986524199 -0.090788868403012,51.5588509177387 -0.090730779763172,51.5587276078979 -0.090651273459831,51.5585539465309 -0.090579401586362,51.5584006024038 -0.090522194552434,51.5582746620795 -0.090449938566671,51.5581213115834 -0.090382876552201,51.5579728540268 -0.090349374369221,51.5579071601352 -0.090333430516741,51.5578734846331 -0.090318797913229,51.5578544947499 -0.090308510008577,51.5578423066472 -0.090295839303855,51.5578317631232 -0.090286697715337,51.557826895702 -0.090281085609296,51.5578230426211 -0.090261188465262,51.5578153335829 -0.090272983558031,51.5578059540978 -0.090324421108773,51.5577658500155 -0.090341221336921,51.5577536618763 -0.090348741585767,51.5577450139521 -0.090355838099481,51.5577346676112 -0.090378708380206,51.5576964332833 -0.090397088357489,51.5576631823132 -0.090399570881799,51.5576569144574 -0.090401482584989,51.5576466373851 -0.090401958786843,51.5576352596021 -0.09040038663116,51.5576138477524 -0.090396292830257,51.5575642398396 -0.090389209534532,51.557508264994 -0.090375138929102,51.5574113947741 -0.090344603791013,51.5571906509564 -0.09033582533655,51.5571049701558 -0.090316394159627,51.5569536782837 -0.090307672478384,51.5568302114444 -0.090306844247925,51.5567395677009 -0.090303099044776,51.5566447892684 -0.09030110862993,51.556609417657 -0.090298447497151,51.5565716313875 -0.090293199860395,51.5565035131411 -0.090279648564755,51.5563297240384 -0.090274747111146,51.5562625727404 -0.090260102205406,51.5561353538315 -0.09024841543942,51.5560255901371 -0.090246689320418,51.5559931076582 -0.090247800007408,51.5559310704337 -0.090251724014983,51.5558636142557 -0.090255635493393,51.5557425169311 -0.090258496031987,51.5556096149553 -0.090257588698287,51.5555590859539 -0.09025981481993,51.5555223037807 -0.090264951718173,51.5554427552182 -0.090274088323479,51.5553396077877 -0.09029566194858,51.5551247302146 -0.090297088235952,51.5551003708887 -0.090305790234003,51.555008913963 -0.090308095391892,51.5549774108415 -0.090311867079379,51.554913727273 -0.090315067031782,51.5548649108673 -0.090316709488366,51.5548187722534 -0.090319421987318,51.5547834296297 -0.090322929381301,51.5547350220031 -0.090327416801716,51.5546690911548 -0.090334093485468,51.5545744250195 -0.090341068127354,51.554478532651 -0.090344539861968,51.5544250472109 -0.090349522114977,51.5543100643142 -0.090356329692935,51.5541513953677 -0.090200812765322,51.5541390448105 -0.090013278231731,51.5541280991678 -0.089882029019029,51.5540823864402 -0.089863353827776,51.5540771243158 -0.089826607130693,51.5540613797939 -0.089794740481126,51.5540488397662 -0.089767750948162,51.5540395050882 -0.089733185754166,51.5540269219405 -0.089707410947539,51.5540185494817 -0.089657896096717,51.5539980985952 -0.089620131800667,51.553982957902 -0.089610369424492,51.5539784660628 -0.089584374312609,51.5539655370196 -0.0895585440397,51.5539486709915 -0.089527633217411,51.5539286709087 -0.089506434632809,51.5539149459846 -0.089493480707378,51.5539058895903 -0.089481283664982,51.5538978428195 -0.089464105398267,51.5538841861487 -0.089461403765883,51.5538821834968 -0.089428346867695,51.5538558715369 -0.08941014609446,51.5538415210373 -0.089382346758334,51.5538197668378 -0.089339872896655,51.5537863670574 -0.089329802893215,51.5537781993876 -0.089294482882921,51.5537477525374 -0.089286519785943,51.5537408395255 -0.08927484544419,51.5537439098418 -0.089253025012929,51.553749690513 -0.089213724138163,51.5537601266125 -0.089162077287991,51.553773825283 -0.089106670082322,51.5537885507022 -0.089041028853365,51.5538062592751 -0.088993173764228,51.5538192805314 -0.0889373391209,51.5538345654362 -0.088807314127225,51.5538699848927 -0.088616182167549,51.5539219185702 -0.088554370059434,51.5539404968924 -0.088460204193343,51.5538239726287 -0.088393972139738,51.5537436560751 -0.088148383983379,51.5534349269238 -0.088043853074968,51.5533015274972 -0.087890085446738,51.5531318645786 -0.087797822364373,51.5530340358403 -0.087774216388503,51.5530084180933 -0.087756105450244,51.5529914609155 -0.087711392408805,51.5529469279296 -0.08770148046443,51.5529351710293 -0.08764832222836,51.5528995440461 -0.087584372665138,51.5528566942423 -0.087565131234314,51.5528446870049 -0.087526358072713,51.5528233322976 -0.087470375735294,51.5527925583073 -0.087369662415879,51.5527613363478 -0.087357269806647,51.5527574893001 -0.087334485255851,51.5527487982095 -0.087299148079081,51.5527388050606 -0.08727077713138,51.5527311054582 -0.087224672053486,51.5527194230096 -0.087190455836591,51.5527104939732 -0.087141538523489,51.5526980758363 -0.087109187519444,51.5526898678664 -0.087057551555304,51.5526783702097 -0.086997655225649,51.5526629688235 -0.086938409320495,51.5526504619657 -0.08687559454587,51.552640300525 -0.086788419584323,51.5526225300083 -0.086732134815237,51.5526129562422 -0.086696608917315,51.5526049238148 -0.086625337065661,51.5525941430032 -0.086569994759784,51.5525804982964 -0.086524906036753,51.5525706261957 -0.086475954160171,51.5525609319767 -0.086427356959861,51.55255196474 -0.086342524684528,51.5525335109406 -0.086274483911932,51.5525100419211 -0.086214179564932,51.5524859780401 -0.086180853108631,51.5524714904957 -0.086104848950006,51.5524356316063 -0.086029984356116,51.5524013227298 -0.085830249689041,51.552307908851 -0.085763042401901,51.5522726287118 -0.085702697706571,51.5522461008069 -0.085582472056705,51.5521967466546 -0.085533897320751,51.5521748425818 -0.085486698613376,51.5521601281137 -0.085398711643925,51.5521341698378 -0.085373834633407,51.5521296760862 -0.085356646416168,51.552125789105 -0.085326313539343,51.55212264859 -0.085291794567671,51.552118238228 -0.085228473600276,51.5521109524414 -0.085164038306064,51.5521026879905 -0.085074321069645,51.552090403275 -0.08497881210223,51.5520782639119 -0.084907511247957,51.5520682036882 -0.084766747940601,51.5520613209483 -0.084606970718609,51.5520534338592 -0.084443164575971,51.5520699883433 -0.084252302308139,51.5520880228232 -0.083979611881792,51.5521142600213 -0.083774539196317,51.5521338184952 -0.083566549667285,51.5521510762415 -0.083421919107509,51.552151715728 -0.083219964675036,51.5521402222659 -0.083081963256944,51.55213022357 -0.082969588895203,51.5521216889804 -0.082780350839305,51.5521088668839 -0.082737485691905,51.5521055368775 -0.082417733813897,51.5520894578565 -0.08215932065503,51.5520735835042 -0.081942849174814,51.5520632791329 -0.081730352963314,51.5520443993072 -0.081495024136369,51.5520240184329 -0.081151681724433,51.5519932288499 -0.080904453665935,51.5519692706614 -0.080699343088266,51.5519495791959 -0.080651092502044,51.5519445945791 -0.080508470388454,51.5519332977414 -0.080395750470897,51.5519238440582 -0.080321810903646,51.5519175373393 -0.08026119858257,51.5519112178376 -0.080101868034454,51.551893254745 -0.080063556382926,51.5518890145783 -0.080014977479753,51.5518824766821 -0.079978945350732,51.551875996903 -0.079936447728401,51.55186819175 -0.079894333620827,51.5518593281362 -0.079871039421838,51.5518545004026 -0.079836521488353,51.5518461101757 -0.079793225378958,51.5518357199839 -0.079751836779597,51.5518245957647 -0.079716471063306,51.5518148606937 -0.079692257952903,51.551807567364 -0.079677041236674,51.5518029843928 -0.079628042212216,51.5517877165714 -0.079568987640151,51.5517659782529 -0.07953594494363,51.5517535888027 -0.079499254591345,51.5517340632282 -0.079439530573449,51.5516989282987 -0.079417255893421,51.5516845463008 -0.079399193349292,51.5516726613655 -0.079378687184407,51.5516591689485 -0.079334747564118,51.5516295255462 -0.07929971224407,51.5516030325497 -0.079251364707411,51.5515635508254 -0.079206757310327,51.5515211250522 -0.079138998622396,51.5514561572858 -0.079088607564469,51.5514080018405 -0.079010624441803,51.5513351038955 -0.078965634996481,51.5512903534533 -0.078861063431699,51.5511821414075 -0.078779515684434,51.5510949809421 -0.078724918043826,51.5510305443824 -0.078690754478942,51.5509867869933 -0.078677886684575,51.5509648919708 -0.078654251733039,51.5509287324702 -0.078641706126194,51.5509124109821 -0.078638324144383,51.5509066775534 -0.078633419100791,51.5509007356965 -0.078618477587022,51.550873896666 -0.078583104302542,51.5508143372845 -0.078546236624914,51.550746660887 -0.078456565540846,51.5505997375176 -0.078394711478267,51.5505018820358 -0.07827270649852,51.5503171723714 -0.078225786626483,51.5502407170653 -0.078115445692153,51.5500710460579 -0.078027001523888,51.549934296105 -0.077974854999674,51.549852949287 -0.077937605834795,51.5497984027164 -0.077909916749746,51.5497532042532 -0.077826245155618,51.5496457581313 -0.077684723053099,51.5494925843078 -0.077677582648897,51.5494829809071 -0.077648517268425,51.5494510471522 -0.077544840891903,51.5493235131666 -0.077320831839666,51.5490386345143 -0.077076503923155,51.5487283307043 -0.077035847211736,51.5486808939485 -0.07693836541973,51.5485509070094 -0.076872060367264,51.5484489436157 -0.076782815702942,51.5482980005784 -0.076710244924257,51.5481702568282 -0.076691375601927,51.5481336269742 -0.07667923577882,51.5481014555107 -0.076653099664652,51.5480388976911 -0.07663081981792,51.547986618726 -0.076576729116782,51.5478720421303 -0.076559275298451,51.5478394749404 -0.076507850202307,51.5476971856271 -0.076446003822562,51.5475341825257 -0.076401586644009,51.5474043334077 -0.076368112074193,51.5473051829229 -0.076335728798212,51.5472248313071 -0.076326271776306,51.5472035470658 -0.076331295971796,51.5471736969384 -0.076336666462117,51.547157939347 -0.076364539119842,51.5471220087093 -0.076374884542661,51.5470998761626 -0.076379760353166,51.5470735450855 -0.076373468225358,51.5469994905162 -0.076357741945115,51.5468589608551 -0.076341816265911,51.5467008213698 -0.076331834774478,51.546580340538 -0.076310065799389,51.5464044967186 -0.076305137096411,51.5463650930839 -0.076324220178079,51.5463143458443 -0.076412343897637,51.5462782303863 -0.07648821350522,51.5462425017299 -0.076619878455945,51.5461783430136 -0.076671601420872,51.5461133875626 -0.076685438098173,51.5460865696652 -0.076696345470624,51.5460694713804 -0.076935349717197,51.5460876690159 -0.077028441867695,51.5460944563791 -0.077335602329709,51.5461250416831 -0.077546644184686,51.5461491655061 -0.077790023152237,51.546177950845 -0.078020838585378,51.5462046518457 -0.07813007515107,51.5462143326639 -0.078273658723908,51.5462238251778 -0.078324118090229,51.5462272825316 -0.078477191501324,51.546240311692 -0.0788170213728,51.5462676718986 -0.078970110867704,51.5462803247749 -0.079251576588407,51.5463059764003 -0.079480253684978,51.5463262537768 -0.079633914423782,51.5463396660064 -0.079803306519355,51.5463514583059 -0.080212639189822,51.5463850328136 -0.082166993497931,51.5465139181604 -0.082694890656358,51.5465420576321 -0.08300568526449,51.5465606444281 -0.083238528751546,51.546575018676 -0.083370272962277,51.5465760011107 -0.083601531388384,51.5465833066784 -0.083789715116356,51.5465852120974 -0.083760085749771,51.5463493789517 -0.083737121758586,51.5461969008847 -0.083688107298614,51.5458892423159 -0.083640281872648,51.5456384382929 -0.083568015145185,51.5452317992376 -0.083569831768782,51.5452029055521 -0.083576510865719,51.5451729655785 -0.083593914513243,51.5451315567406 -0.083663155259923,51.5449460077107 -0.08379386867929,51.5446038920552 -0.083884863372685,51.5443647503694 -0.083984723524987,51.5441027464666 -0.084132432374318,51.5437224227666 -0.084241048263708,51.5434311575529 -0.084302687739948,51.543267013824 -0.08439024762712,51.5430364647788 -0.084449838186807,51.5428751722908 -0.084529006348116,51.5426699678971 -0.084633951288712,51.5423925853434 -0.084751421017496,51.5420864798145 -0.084943891218746,51.5415825383392 -0.08512124406416,51.5411247127183 -0.085293447570124,51.5406773670387 -0.085461515491607,51.54023875715 -0.085634553255377,51.5397937714406 -0.085780498914101,51.5394110183202 -0.085913040049788,51.5390509968305 -0.086031766227963,51.5387217118077 -0.086206713930248,51.5382483926165 -0.086402731197456,51.5377362490352 -0.086461893581707,51.5375528889168 -0.086470608462625,51.5375200500564 -0.086524841760622,51.5374476892457 -0.086559825824203,51.5374178349582 -0.086558712480547,51.5374061183449 -0.086561710430516,51.5373671449267 -0.086563499165997,51.5373438968593 -0.086563583917696,51.5373022509463 -0.086577376702535,51.5373000850094 -0.086682255037619,51.53729925865 -0.086812946345235,51.5372852406251 -0.086942696612216,51.5372505475536 -0.087031674872209,51.5372291749884 -0.087272469263875,51.5371654198036 -0.08732059000659,51.5371527027943 -0.087361769640591,51.5371407600553 -0.087408778538568,51.5371276651605 -0.087434102713131,51.5371200705411 -0.087471707082636,51.5371095837669 -0.087493617623467,51.5371027553493 -0.087514539882104,51.5370957327474 -0.087543944624118,51.5370866309905 -0.087593196451238,51.5370656096928 -0.087647678198691,51.5370379895285 -0.087670218380018,51.5370269421414 -0.087823565792411,51.5369539299366 -0.087836857128831,51.5369473493029 -0.087893045825345,51.5369208314801 -0.087951696932474,51.5368927765036 -0.088049704920555,51.5368455798838 -0.088170923526936,51.5367876712564 -0.088313206425431,51.5367193716417 -0.088542680511615,51.5366079806295 -0.088575387433822,51.5365936358266 -0.088597835125476,51.5365801398599 -0.088733379771324,51.5365117379029 -0.089048334599147,51.5363522437205 -0.089456980316861,51.5361450118732 -0.089689174904959,51.5360432030571 -0.08979362806082,51.5359982007159 -0.089906070104408,51.5359438529839 -0.089913492631799,51.5359480350046 -0.090115044724318,51.5358521565023 -0.090282265701901,51.535772640501 -0.090332580505366,51.5357504464847 -0.090394939344651,51.5357245117243 -0.090397307572856,51.5357257040595 -0.090563562959171,51.5356454983553 -0.090557675859071,51.5356427685144 -0.090812522235766,51.5355234724839 -0.091154197855971,51.5353624624507 -0.091478625103566,51.5352083187122 -0.091529521528177,51.5351851183584 -0.091491693176496,51.5351553969467 -0.091542025943527,51.5351309167534 -0.091549457683847,51.5351339486682 -0.091567878353929,51.5351239907535 -0.091563528671719,51.5351217014546 -0.091593447133419,51.5350919680834 -0.091617563390101,51.5350674341728 -0.091751456400944,51.5350050671133 -0.091847781452162,51.5349607155495 -0.091903850782187,51.5350068989079 -0.091946671282834,51.5349878851331 -0.091925583733578,51.5349689136663 -0.092202620431592,51.5348389138775 -0.092256835739045,51.5348131539605 -0.092398644795046,51.5347442001922 -0.09262622759532,51.5346339713138 -0.092812014734251,51.5345432062122 -0.092869051003329,51.5345157949923 -0.092976975975756,51.5344659154935 -0.093145912768175,51.5343994353712 -0.093246151246391,51.5343571219352 -0.093391577783365,51.5342972444276 -0.093588821113792,51.5342154753345 -0.093790371042584,51.5341316968403 -0.093948310557498,51.5340666742028 -0.094138408087408,51.5339848167067 -0.094247063652225,51.5339429242987 -0.094340223758869,51.5339082257354 -0.09446848770795,51.5338622500307 -0.094487361216906,51.5338544365343 -0.094492657650041,51.5338575684377 -0.094608975469791,51.5338141085382 -0.094777629518444,51.533751869044 -0.095020809858213,51.5336594264736 -0.095025439472862,51.5336530126031 -0.095129494091552,51.5336139812978 -0.09540916298559,51.5335079620469 -0.095632559595592,51.5334237028787 -0.095981025506755,51.5333023416017 -0.096150506695045,51.5332462051715 -0.096294360490048,51.5331985460177 -0.096380238106908,51.5331709852717 -0.096553224057423,51.5331202935838 -0.096838882454082,51.5330411060598 -0.096964976970685,51.5330071970797 -0.097032514558853,51.5330033116617 -0.096979533554285,51.5329246908757 -0.096856516120515,51.5327516986026 -0.096650340841497,51.5324518747038 -0.096390862983051,51.5320770653207 -0.096195974550755,51.5317929920785 -0.096031856824864,51.5315564455772 -0.095911290430067,51.5313747494694 -0.095818418825777,51.5312301878997 -0.095735577467641,51.531109926465 -0.095508033883704,51.5307812934207 -0.095380408628911,51.5305918877696 -0.095301364413777,51.5304638901834 -0.095283744679019,51.5304367454269 -0.095240028369441,51.5303526423102 -0.09519063957252,51.5302631008473 -0.095139725672552,51.530160576127 -0.095122945321911,51.5301223480202 -0.095104231902127,51.5300840777047 -0.095093611316662,51.5300544001202 -0.095083658752151,51.5300159772182 -0.095072812718364,51.5299743339043 -0.09506387831506,51.5299055259919 -0.095062835994935,51.5298805993271 -0.095065530395191,51.5298576830034 -0.095064056460196,51.5298403292545 -0.095066354140054,51.5298159685536 -0.09507157799864,51.5297829226155 -0.095076986113133,51.5297555450603 -0.095084038727082,51.5297221736304 -0.095095011931322,51.5296922435661 -0.095128240858203,51.5296200049113 -0.095156989458105,51.5295552742666 -0.095234051291467,51.5294313295518 -0.095292823777577,51.5293378452557 -0.095351805573879,51.5292446251157 -0.095373306595905,51.5292059822174 -0.094935007510368,51.529093514732 -0.094602831740532,51.5290082641093 -0.094176693446216,51.5288992738247 -0.093581048895136,51.5287483936073 -0.093094554950467,51.5286230825632 -0.092551852347945,51.5284836347209 -0.092144230210068,51.5283781119483 -0.091827897086125,51.5282994575335 -0.091241719752055,51.5281455461498 -0.09097250274273,51.5280755882194 -0.090918723280346,51.5280641360539 -0.090635170650102,51.5279923584665 -0.090392107836129,51.5279254690897 -0.090223607956664,51.5278798899945 -0.090000371710887,51.5278254863314 -0.089823290546488,51.5277824106848 -0.089713566302078,51.5277504800199 -0.08957744259287,51.5277116460682 -0.089490080388152,51.5276858538493 -0.089319313155565,51.527643472976 -0.089049038139864,51.5275673172593 -0.088955883442541,51.5275373691225 -0.088832844839622,51.5274954266522 -0.088731552970195,51.5274524852453 -0.088691778914161,51.5274305150839 -0.088622847137262,51.5273842784457 -0.088581632247411,51.5273538954885 -0.088533195743941,51.5273165000724 -0.088498568671571,51.5272864115612 -0.088454210684266,51.5272456824928 -0.08838686192795,51.5271789529523 -0.088361770025899,51.5271562338246 -0.088352827521546,51.5271459073815 -0.088334961735544,51.5271204958844 -0.088291692246767,51.5270634673028 -0.088201718138455,51.5269400520463 -0.088162866436901,51.5268893831482 -0.0881332566036,51.5268418973044 -0.088094677222796,51.5267847347204 -0.088067292044692,51.526742339028 -0.088038768156575,51.5266993204483 -0.08799950222869,51.5266167180537 -0.087963434522972,51.5265440444674 -0.087919169985669,51.526447733913 -0.087904625244228,51.526418804635 -0.087853984333037,51.5263054046826 -0.087832236219165,51.5262417612775 -0.087796957482022,51.5262161402859 -0.087748534657008,51.5261804911554 -0.087704096777171,51.5261533673219 -0.08763923887124,51.5261215111189 -0.087553344097203,51.526073743549 -0.087522521221081,51.5260583488014 -0.087465094150638,51.5260174753856 -0.087429522277225,51.5260118186327 -0.087149033313264,51.5258948783667 -0.087116942287902,51.5258808530871 -0.08705740439755,51.5258504853411 -0.087025228677028,51.525829336458 -0.086999093507806,51.5258056423009 -0.086978978204152,51.525779930406 -0.086976946584615,51.5257677346606 -0.086825595051134,51.525805197379 -0.086758654409792,51.5258181117934 -0.08665820472019,51.5258482010763 -0.086483943501813,51.5258998242544 -0.086262306080095,51.5259490883053 -0.086082491207648,51.5259916302363 -0.085851156371704,51.5260497242389 -0.08556063425214,51.5261243023188 -0.085261170027181,51.5261897445321 -0.085110622356615,51.5262216579732 -0.085009964143416,51.5262376068425 -0.084996927680654,51.5261988593839 -0.084992829016706,51.5261801784996 -0.084992598247371,51.5261727287999 -0.084971184369395,51.5261141667194 -0.08493489188364,51.5260093334826 -0.084894728117284,51.5258804075445 -0.0848817934621,51.5258395825627 -0.084858737687888,51.5257813325397 -0.084838577911918,51.5257187288327 -0.084808767116393,51.5256275388701 -0.084790606629585,51.5255690307223 -0.084745477051681,51.525429192632 -0.084787063561095,51.5254078735198 -0.084837836747926,51.52537452035 -0.084900893282952,51.5253329075875 -0.084968958337449,51.5252883296636 -0.085025902618249,51.5252242788302 -0.085046358822427,51.5252022751891 -0.085086409832469,51.5251399797952 -0.085132823926457,51.5250683109417 -0.085236047832184,51.524909912972 -0.08533155259449,51.5247544355346 -0.085407858385285,51.5246297806973 -0.085463768589624,51.5245386375579 -0.085370192834474,51.5245168298017 -0.085251240771679,51.5244884609741 -0.08511921342801,51.5244572795548 -0.085126476079626,51.5244331386324 -0.085128736539489,51.5243710100413 -0.085132031379537,51.5243173460725 -0.085151609379299,51.5242314575255 -0.085169058182016,51.5241443300725 -0.085183505805742,51.5240673279135 -0.085201670559935,51.5239444905092 -0.085112300249769,51.5239430378566 -0.08461711177687,51.5239365710724 -0.08421433484792,51.5239299869492 -0.084266257202115,51.5237367997768 -0.084302809044667,51.5235966519432 -0.084391598673074,51.5232558068245 -0.084405150618455,51.5230373955335 -0.084424737550263,51.5227534938449 -0.084434372546874,51.5226805453184 -0.084460384418265,51.5225566232799 -0.084514941326285,51.5223006219549 -0.084534415438033,51.5221759095825 -0.084542817474546,51.5221323199893 -0.084586937651578,51.5219683841932 -0.084603401651844,51.5219153608504 -0.084689758851765,51.5216844750934 -0.08475029416285,51.5215208075211 -0.08484943334281,51.5212723663884 -0.084879627426916,51.5211792576768 -0.084956137272883,51.5209741732957 -0.08502240085496,51.5208044486181 -0.085095172327391,51.5206361970788 -0.085151969121542,51.5205093611722 -0.085232825739326,51.520348368287 -0.085316152768178,51.5202046447717 -0.08544315988454,51.5200007666068 -0.085615309451349,51.5197232909501 -0.085740083848169,51.5195224370548 -0.085848811966161,51.5193532414725 -0.086019071636942,51.5190829679744 -0.086162273856476,51.5188603589086 -0.086178188686055,51.5188355434778 -0.086199914751311,51.5188120809847 -0.086248086455957,51.5188261117666 -0.086319876543337,51.518847651166 -0.08641232657653,51.5188739323609 -0.086484650003117,51.5188949938624 -0.086595807442674,51.5189273130914 -0.08665299045633,51.5189438351765 -0.086715713507529,51.5189621643513 -0.08680039163046,51.5189865603409 -0.086900909092485,51.5190167101756 -0.087261522899423,51.5191202674153 -0.087525565024881,51.5191973915419 -0.087765306630847,51.5192908613378 -0.08777125364871,51.5192930014793 -0.087839637902864,51.5193206228368 -0.087931593458943,51.5193506987108 -0.088030819727201,51.51938266645 -0.088104443039549,51.5194069711607 -0.088227347774004,51.5194473041052 -0.088304670621725,51.5194723857398 -0.088397012957035,51.5195021896912 -0.088459082360927,51.519522703317 -0.088577066011466,51.519561537518 -0.088612637487256,51.5195727288562 -0.088878445964717,51.519661966805 -0.088964844040372,51.5196909225309 -0.089042196697042,51.5197156561608 -0.089137460957895,51.5197437940627 -0.089232278758594,51.5197719255118 -0.089320362983091,51.5197940497293 -0.089680451465119,51.5198913933869 -0.089754485226354,51.5199114781055 -0.089978367219419,51.5199717636967 -0.089983248639609,51.5199732973461 -0.089936279382025,51.520087158527 -0.089857015416321,51.5202785609702 -0.089719161125093,51.5206101878109 -0.089674246138658,51.5207177460672 -0.089673508191337,51.5207189489566 -0.089700142422312,51.5207215978628 -0.089730994328536,51.5207246275351 -0.08983879808083,51.5207355395734 -0.089987991003041,51.5207592264325 -0.090115434165214,51.5207796289509 -0.090248174003486,51.5208028073348 -0.090416140919167,51.5208316321672 -0.090524064830045,51.5208463305698 -0.090642508726638,51.5208566543988 -0.090688517159731,51.5208613218446 -0.090838506621125,51.5208788767908 -0.09094383312766,51.5208917861281 -0.091180630960631,51.5209185922663 -0.091346062017521,51.5209409698865 -0.091521437545621,51.5209571558169 -0.091803222405517,51.5209863962819 -0.091970534367116,51.5210016571381 -0.092084640156139,51.5210122902081 -0.092159289887213,51.5210190571803 -0.092272904736374,51.521027712675 -0.092350316701878,51.5210349552272 -0.092360426908594,51.5210355846669 -0.09237203689903,51.5210719521693 -0.092384941441807,51.521109283172 -0.092396141050812,51.5211423310791 -0.092407544657876,51.5211761889511 -0.092423153725892,51.5212219271805 -0.092446832971264,51.5212911984591 -0.092469387109917,51.5213551448267 -0.092498557922662,51.5214728763529 -0.092586674396263,51.5214575197922 -0.092755300026371,51.5214264012331 -0.092890825716074,51.5214036989103 -0.093275669158668,51.521334852612 -0.093303043918786,51.5213281765166 -0.093409439634414,51.521560154619 -0.093512079941966,51.5215413276699 -0.093527098225405,51.5215750499889 -0.093540374128085,51.5215718495552 -0.093546256794746,51.5215883425398 -0.093587612706668,51.5215800817136 -0.093741498656643,51.5215518631905 -0.093911544286684,51.5215283217319 -0.0940680701229,51.5215076393273 -0.094162676919926,51.521497983261 -0.094318748142188,51.5214848667949 -0.094340877396529,51.5216027460675 -0.094358989467566,51.5216953912137 -0.09437646864677,51.5217709551914 -0.094412222816822,51.5217634204545 -0.094458957779493,51.5219225760753 -0.094480503008386,51.5219867323223 -0.094560537863804,51.522164899323 -0.094581275152358,51.5222161684453 -0.094658223231823,51.5223716172691 -0.094700667485429,51.522450945745 -0.094779766202832,51.5225871193865 -0.094858843489615,51.522723851979 -0.094938227672442,51.5228639482916 -0.095003207555699,51.5229730266039 -0.095090389833423,51.5231090517454 -0.095467031474344,51.5230275778966 -0.095698544318305,51.5229775975515 -0.095987148314373,51.5229150261722 -0.096008208920388,51.5229514092725 -0.09641554982098,51.5228316453117 -0.096502061026165,51.522982261864 -0.096538130664454,51.5230495205055 -0.096545905616413,51.5230481566561 -0.096571652495181,51.5230916750448 -0.09654403360915,51.5230974162814 -0.096572348525163,51.5231454466517 -0.096604817987189,51.5231379496516 -0.09663492873489,51.5231825694497 -0.09667605057271,51.5231727534052 -0.096687962215763,51.5231941759311 -0.096701996215855,51.5232191832424 -0.096758813440752,51.523314013148 -0.096868917194315,51.5232732561196 -0.096964279770382,51.5232381238351 -0.097083537026688,51.5231939792546 -0.097255610273794,51.5231302891368 -0.097386438115548,51.523081861758 -0.09753407228463,51.5230269444466 -0.097701670715369,51.5229647853312 -0.097828956017014,51.5229175607346 -0.097942480765523,51.5228755065644 -0.097945539732166,51.5228743997323 -0.097928711162807,51.5228577671078 -0.097913692263776,51.5228428508802 -0.097877591021663,51.522803310404 -0.097839836084134,51.5227583141737 -0.097777982199891,51.5226905520779 -0.097762121985287,51.5226732741789 -0.097739190418846,51.5226478860955 -0.097717633602109,51.5226205392181 -0.097701930896164,51.5225994500512 -0.097676093769873,51.5225619834347 -0.097660087562384,51.5225394963638 -0.09763164464575,51.5224917510291 -0.097601220419838,51.5224364511174 -0.097574034615137,51.522379233446 -0.097558394676218,51.5223411885906 -0.097510125531559,51.5222456587547 -0.097498173572016,51.5222155540721 -0.097479803004447,51.5221810475953 -0.097472176504746,51.5221642665924 -0.097452810091904,51.5221191765945 -0.097437334545426,51.5220771937789 -0.097427693814258,51.5220467686891 -0.097418006539746,51.5220251692067 -0.097411915577374,51.5219993934142 -0.097395860346519,51.5219495352458 -0.097373147927193,51.5218676736193 -0.097362743287807,51.5218035088966 -0.097358354150348,51.5217796500943 -0.097356320160698,51.521720848699 -0.097362750105157,51.5216957662207 -0.097367298643639,51.5216619779211 -0.097374606606795,51.5216294592155 -0.09738438622933,51.5215953970036 -0.097386939660872,51.5215848405133 -0.097468015421256,51.5216014016896 -0.097501082675456,51.5216059499884 -0.097514339720287,51.5215215705218 -0.097518449553279,51.5215067362647 -0.097524565157011,51.5214834508164 -0.097539780650993,51.521413775665 -0.097546944644575,51.5213785864652 -0.097555922671521,51.5213218774231 -0.097556843595321,51.5213174220816 -0.097560047046299,51.521267038339 -0.097561411144166,51.5212387468637 -0.097562251722695,51.521218586213 -0.097572707562861,51.5211747301788 -0.097580043401191,51.5211426435574 -0.097601772015648,51.5210520688634 -0.09760540507498,51.5210346657343 -0.097625278942147,51.5209430060874 -0.097625265185559,51.5209189610996 -0.097637417101435,51.5208749419322 -0.097654306978366,51.5207711116519 -0.0976630317394,51.5207124839296 -0.09778950564729,51.5206915884924 -0.097998207533315,51.5206566350561 -0.098083537993287,51.5206434673909 -0.098273801868379,51.5206096135979 -0.098416554415624,51.5205856227533 -0.098490997127644,51.5205744975889 -0.098725914931624,51.5205321848389 -0.098795218311646,51.5205147711419 -0.098905239047019,51.5204865555518 -0.099044019277935,51.5204501165151 -0.099428241305515,51.520345404459 -0.099581174708515,51.5203031079314 -0.099636230043032,51.5202854510662 -0.099679907129396,51.5202715161843 -0.099721329969589,51.520258302834 -0.099772498378852,51.5202418382852 -0.099825300171149,51.5202250215933 -0.099841295269528,51.5202199166765 -0.09988717272625,51.5202065848209 -0.099943327786799,51.5201903440022 -0.100077253961805,51.5201514896238 -0.100095983006919,51.5201458759243 -0.100158685619826,51.52013574826 -0.100240941509627,51.5201305722779 -0.100252376284008,51.5201290210764 -0.100272100153987,51.5201263443115 -0.100320873436613,51.520119933259 -0.100380330654168,51.5201100622363 -0.100404432968247,51.5201058781688 -0.100470119085686,51.5200891062795 -0.100528733497577,51.5200699769851 -0.100787768621987,51.5199907281887 -0.101046892700136,51.5199106358251 -0.101549349507495,51.5197514660862 -0.101749659144229,51.5196828826721 -0.102063295264386,51.519580635764 -0.102324197758799,51.51949833076 -0.102542704392551,51.5194288798654 -0.102709386311905,51.5193762567068 -0.10295667501548,51.5192976635483 -0.103440954898363,51.5191443001694 -0.103592288512138,51.5190980112177 -0.104163551844087,51.5189164710089 -0.104718238941875,51.5187422141197 -0.105082575107268,51.5186272467377 -0.10529052274065,51.5185548314874 -0.105329026236348,51.5186773977078 -0.105367030047231,51.5187999918153 -0.105420273553004,51.5189526303919 -0.105456855250293,51.5190583481884 -0.105486041935273,51.5191434592723 -0.105580740398644,51.5194382402312 -0.105628193686187,51.5195841764325 -0.105667640119772,51.5197073683611 -0.105713479397001,51.5198478909062 -0.105740125583531,51.5199317216982 -0.105789431259175,51.5200848666466 -0.105858664486216,51.5202860928977 -0.105918681413427,51.5204439493623 -0.105986823755176,51.520605534072 -0.106023305626596,51.5206864210844 -0.106064997066556,51.5207648427424 -0.106098892467742,51.5208342168261 -0.106163723300128,51.5209670134419 -0.106294096568488,51.5212073933917 -0.10633163169747,51.5212680654225 -0.106385835804171,51.5213482698585 -0.106438372721366,51.5214292630019 -0.106479334017183,51.5214898805729 -0.106496578605757,51.5215154465061 -0.106563385238488,51.5216070700167 -0.10660941031371,51.5216744742599 -0.106806656207952,51.5219333059552 -0.106864173983419,51.5220077552255 -0.106934367556735,51.5220965788788 -0.107001688911173,51.5221837239609 -0.107155115290769,51.5221731483342 -0.107408257270488,51.5221543916827 -0.107621180038244,51.5221377411148 -0.107754004684991,51.5221267676386 -0.107845832857914,51.5221189196519 -0.107941523939835,51.5221108704056 -0.108014837949708,51.5221051274551 -0.108081200063118,51.5220997543602 -0.108163177312382,51.5220932859221 -0.108238364849751,51.5220869957094 -0.108279626767334,51.5221168245366 -0.108311271106541,51.5221484236177 -0.108332066961142,51.5221695843434 -0.108342224050211,51.5221811931888 -0.108379279172277,51.5222244936292 -0.108396511876861,51.5222439107511 -0.108415332533339,51.5222659505795 -0.1084432911309,51.5222981403726 -0.108478405110276,51.5223362152728 -0.108522194687495,51.5223844326698 -0.108549673629102,51.5224169995935 -0.108563301648807,51.5224341463584 -0.108580979747969,51.5224577063981 -0.108612517066944,51.5225002442478 -0.108627363622099,51.5225214501921 -0.108672755025985,51.522586813748 -0.108713487900448,51.5226455608614 -0.108745723207382,51.5226935928047 -0.108766182878164,51.5227281616141 -0.108793317083577,51.522769089774 -0.108819744363079,51.5228084678728 -0.108836434161239,51.5228335506007 -0.108845412938856,51.5228475450681 -0.10886785570618,51.5228840064261 -0.108894051627041,51.5229275785923 -0.108912669625837,51.5229545206164 -0.108933911968971,51.5229850624704 -0.108943089993408,51.5229942508211 -0.108954015597167,51.5230051678689 -0.108969729044206,51.5230198644046 -0.109110604301323,51.522969925 -0.109182879806954,51.5229446413322 -0.109222180575016,51.52292999157 -0.109260983610775,51.5229152465431 -0.10932786912469,51.5229452064885 -0.109372855825768,51.5229677685689 -0.109441814185859,51.5230022222567 -0.109480443713958,51.5230237430074 -0.109554302720062,51.5230580408906 -0.109603783528234,51.5230703588217 -0.109783859456064,51.5231011144853 -0.10979954846357,51.5231048204811 -0.10989171012795,51.523122263874 -0.109973986289867,51.5231423743556 -0.11002507510398,51.5231535669434 -0.110123772516918,51.5231668780627 -0.110233288712301,51.5231865252009 -0.110407367308781,51.5232177318596 -0.11043432253301,51.5232241767692 -0.110546644568294,51.5232516835045 -0.110644981662481,51.5232737050521 -0.110755250678444,51.5232984735064 -0.110837102398438,51.5233172231401 -0.11093255617566,51.5233390478379 -0.111023209466863,51.5233604948054 -0.111122714092462,51.5233834358255 -0.111201207530879,51.5234018316765 -0.111284453364365,51.5234218057739 -0.111356003141825,51.5234391877609 -0.111404171758164,51.5234510836321 -0.111545463236846,51.5234873947406 -0.111762673620719,51.5235394689054 -0.111854078203007,51.5235638202909 -0.111928927287087,51.5235825814596 -0.112016461171278,51.5236041528164 -0.112053118578966,51.5236148119185 -0.112154781535085,51.5236437984495 -0.112215683399648,51.5236623601777 -0.112287745849278,51.5236848595259 -0.112364009767949,51.5237160882461 -0.112388632640842,51.5237273881334 -0.112605227978105,51.523831914532 -0.112699975845283,51.5238873710025 -0.112801128695476,51.5239443989452 -0.112860600803623,51.5239853463664 -0.112950101269456,51.5240539258737 -0.113093952818541,51.5241593352016 -0.113259012953645,51.5242865115605 -0.113361914702456,51.5243639662939 -0.113475375551363,51.5244505412155 -0.113586502274546,51.5245364687871 -0.113627620320056,51.5245663581711 -0.113652374484107,51.5245935392969 -0.113694979261186,51.5246584289515 -0.113764482121185,51.5247740025337 -0.11378485799749,51.5248038425347 -0.113948695288482,51.5250649416204 -0.113958206820754,51.5250810224856 -0.114079290783821,51.5252641027282 -0.114153098877213,51.5253709530758 -0.114229196009338,51.5254825262908 -0.114240299300093,51.5254974204968 -0.114235704911765,51.5255115803642 -0.114227675931921,51.5255188847108 -0.11406030236116,51.5256500575353 -0.114028437815001,51.5256741998021 -0.113949621146859,51.5257323397054 -0.113871364643583,51.5257860263559 -0.113826834862053,51.5258160701139 -0.11365148158516,51.5259330034867 -0.113505936404747,51.5260299861956 -0.113335313234609,51.5261425886761 -0.113328983169831,51.5261470120238 -0.11326409053938,51.5261893017246 -0.113200028568557,51.5262316515088 -0.113182319367117,51.5262399151861 -0.113142831312255,51.5262663041666 -0.113109050264334,51.5262890430446 -0.113078515299274,51.5263096668726 -0.113049310701792,51.526328658325 -0.11301030240796,51.5263541098367 -0.112994809502627,51.5263668209728 -0.112987112558795,51.5263708293312 -0.112960265775718,51.5263850961291 -0.112930438280644,51.5264008464375 -0.112919374003146,51.5264087844101 -0.112950132629719,51.5264168780523 -0.112992031772306,51.5264278774848 -0.113017575859592,51.5264378215717 -0.113037831345875,51.5264412984371 -0.113062474657612,51.5264455554033 -0.113088804392525,51.5264502729397 -0.113107530649264,51.526453601996 -0.11312611656418,51.5264566644054 -0.113139092786243,51.5264590007987 -0.113175500784162,51.5264673857859 -0.11319407625156,51.5264717816406 -0.113221199623406,51.5264786782643 -0.113252269982344,51.5264863478891 -0.113287280828059,51.5264949477803 -0.113315495939321,51.5265014168002 -0.113363977080207,51.5265126082882 -0.11340331964671,51.5265226141306 -0.113411938282416,51.5265246250227 -0.113444470847077,51.5265326706281 -0.113473241768238,51.5265415972735 -0.113531516130992,51.5265604236476 -0.113636003913454,51.526595188148 -0.113669425097625,51.5266072668396 -0.113734608858492,51.5266349991211 -0.113764262165579,51.5266479362616 -0.113810521660048,51.5266702239691 -0.113834381739238,51.526682341333 -0.113938138095408,51.5267385415141 -0.113982468443029,51.5267627216901 -0.114068724472383,51.5268133517745 -0.114093294442277,51.5268269229374 -0.114186802034203,51.5268848825983 -0.114260356834607,51.526933191481 -0.11433286446262,51.5269807146082 -0.114403696402128,51.5270277296471 -0.114461789944204,51.5270658843823 -0.114522210137377,51.5271061043504 -0.114593287473802,51.5271522491309 -0.114662675166398,51.5271969323727 -0.114869796751707,51.5273291324081 -0.114908004229891,51.5273542822001 -0.115089219860313,51.5274682779188 -0.115201606805904,51.5275404888225 -0.115277880602365,51.5275977481114 -0.115338371400073,51.5276436567342 -0.115391583048233,51.527690372841 -0.115451290605271,51.527757829847 -0.115488417388982,51.5278157532692 -0.115578050967899,51.5280264338046 -0.115592548329536,51.5280759676488 -0.115603536059197,51.5281214316488 -0.115632395245217,51.5282480761228 -0.115663989299665,51.5284029271205 -0.11569520049091,51.5285499842381 -0.115709196117543,51.5286339054848 -0.115726947962942,51.5287826663472 -0.115744338493109,51.5289623762488 -0.115759390411844,51.5290652325054 -0.115779447765858,51.5292249215102 -0.115806327595903,51.5294196893066 -0.115819783051664,51.5294944292568 -0.115839399812333,51.5296202894387 -0.115846628253987,51.5296794663308 -0.115857332414447,51.5297234329579 -0.115873659314752,51.5297656221035 -0.11588772521804,51.5297867363919 -0.115904889515776,51.529808652239 -0.115925869295469,51.5298315313401 -0.115947904640158,51.5298521720101 -0.115973972698168,51.5298743810352 -0.116000397798835,51.5298937405911 -0.11603274334126,51.5299155998908 -0.1160739230142,51.5299394032107 -0.11610248063794,51.5299538383918 -0.116145698373879,51.5299749694002 -0.11616485374226,51.5299836933488 -0.116231418050879,51.5300112109201 -0.116268871908609,51.5300260883876 -0.116408108788444,51.5300791180612 -0.11654880971851,51.5301317205465 -0.116671712292673,51.5301777250946 -0.116747249171921,51.5302038837548 -0.11682832461987,51.5302301312857 -0.116925578469788,51.5302612976282 -0.117004066459088,51.5302860008147 -0.117074302221782,51.5303063637746 -0.117118380092441,51.5303183419319 -0.117258220110142,51.5303568039572 -0.117413538468052,51.5303997210496 -0.1175190418373,51.5304295157251 -0.117678112813325,51.5304748982627 -0.117773128968895,51.5305019695839 -0.117880799780148,51.5305317996218 -0.118018110649279,51.530567364085 -0.118097324079608,51.5305862176202 -0.118226887367351,51.5306168491179 -0.118343789796559,51.5306448723164 -0.118384615857801,51.5306539424728 -0.118561655063099,51.5306901428425 -0.118755374481335,51.5307308180996 -0.118918604591107,51.5307630402341 -0.119059776542091,51.5307926540383 -0.11912989034878,51.5308042977483 -0.119257677779318,51.5308254315066 -0.11939622669353,51.530854401238 -0.119551024108583,51.5308866374955 -0.119664489191038,51.5309103964592 -0.119787029416133,51.5309361037869 -0.119839098077529,51.5309471566364 -0.119871932881818,51.5309455227321 -0.119925172044433,51.5309416798177 -0.120012724221352,51.5309365080946 -0.120101136304633,51.5309287673654 -0.12019369469516,51.5309208573896 -0.120353574989049,51.5309067723084 -0.120384899985469,51.5309046536449 -0.120640196699882,51.5308838665224 -0.120872766199373,51.5308676329935 -0.121073927481227,51.5308536109517 -0.121274348878268,51.5308438626637 -0.121293697167369,51.5308424026983 -0.121512514374365,51.5308305483934 -0.121689376824118,51.5308209060225 -0.122026346211993,51.5307969368597 -0.122251038955416,51.5307808272316 -0.122409493056783,51.5307690321699 -0.122529580975131,51.5307569305352 -0.122563912214955,51.5307530869266 -0.122566216386931,51.5307971504819 -0.122555887467059,51.5308765997842 -0.122554484724643,51.5308963892569 -0.122547259713912,51.5310004698947 -0.12254507225457,51.5310393249204 -0.122544688954976,51.5311772684034 -0.122541260672725,51.531317731488 -0.122537774024752,51.5314167352823 -0.122531421430606,51.5315567846655 -0.122522805090488,51.5317518316226 -0.122511808366774,51.5319189566822 -0.122503587710276,51.5320329268812 -0.122490587121978,51.5321772727226 -0.122486439010616,51.5322351744755 -0.122478188740398,51.5323641872574 -0.122469755898261,51.5324975990636 -0.122457733890726,51.5326610386591 -0.122444643779403,51.532778967769 -0.122435097495727,51.5328679681727 -0.122427660477044,51.532977182043 -0.122420586372133,51.5330632876708 -0.122414507648841,51.5331395028195 -0.122410074705413,51.5331900628269 -0.122402531935711,51.5333018424278 -0.122395804109857,51.5333938240549 -0.122390208288775,51.533458306002 -0.122384370910184,51.5335286554448 -0.122378412795879,51.5336019372867 -0.122375907301092,51.5336628005432 -0.122370654778752,51.5337903936519 -0.12236446798662,51.5339121012009 -0.12236167720651,51.5339513133777 -0.122356652573669,51.5340447896698 -0.122350799276816,51.5341298139286 -0.122343121130036,51.5342305849186 -0.122338309249855,51.5342903104251 -0.122335697290244,51.5343680484865 -0.122332361561511,51.5344490770928 -0.12232813679945,51.534523120313 -0.122326733039628,51.5345572189369 -0.122325009305528,51.5346562506875 -0.122322155022079,51.5347541636361 -0.122320942947553,51.5348693464069 -0.122314117458115,51.5350526878122 -0.122313563233813,51.5352827064693 -0.122286758047976,51.535371068055 -0.1222905995552,51.5353920421025 -0.122290794231381,51.5354158930156 -0.122290563181416,51.535507243676 -0.122292003750416,51.5356294400396 -0.122291619364258,51.5357673840266 -0.122293560415845,51.535834554742 -0.122294835695018,51.5359464760697 -0.122299216788387,51.5360257936289 -0.12229936617627,51.5360507445239 -0.122305634037414,51.5361128487332 -0.122313212106031,51.5362002884155 -0.122334192028366,51.5364064180456 -0.122347474174522,51.536571727033 -0.122374922131086,51.5368869114378 -0.122378647554783,51.5369016723489 -0.122391133067658,51.5369940115402 -0.122400024628286,51.5370495534662 -0.122428782486231,51.5371369660336 -0.122461775190861,51.5372310425144 -0.122523303055293,51.5373989678413 -0.122585478091943,51.537574967257 -0.122627831383866,51.5377036886219 -0.122644171143654,51.5377498111156 -0.122664489299957,51.5377992993845 -0.122690173863173,51.5378613473067 -0.122717140050357,51.5379208474071 -0.12275241246304,51.5379929541878 -0.122778920435169,51.5380532904588 -0.122800622572558,51.5381006219079 -0.122826453541595,51.5381522900471 -0.122903986080158,51.5382785930061 -0.122966274855608,51.5383813312476 -0.123000512730663,51.5384338856205 -0.123031081967322,51.538479157449 -0.123062345194536,51.5385236157381 -0.123147341760122,51.5386454975002 -0.123210743416482,51.5387317310883 -0.123268787919339,51.5388164985757 -0.123298254581032,51.5388543750723 -0.123338889670903,51.5388972673674 -0.123434338377755,51.5389903721242 -0.123526966128978,51.5390766601738 -0.123659435310378,51.5392000228412 -0.123732055677565,51.5392698677484 -0.123784828493101,51.5393194035466 -0.123873176925634,51.5393965933068 -0.123955007446825,51.5394688434059 -0.123988919069378,51.5394961092448 -0.124026764067566,51.5395385331321 -0.12408897477507,51.5396171195715 -0.12416760697446,51.5397200581867 -0.12446878259735,51.5401333243701 -0.124562028857711,51.5402640050164 -0.124620863338991,51.5403462565887 -0.124699040609472,51.5404570903624 -0.124764380851694,51.5405501777402 -0.124822197686176,51.5406330316431 -0.124871213292268,51.5407046010973 -0.124913691193723,51.5407661605825 -0.124934010050684,51.5407951711375 -0.124957084413376,51.5408295916737 -0.124975045009109,51.540859596001 -0.124994734019352,51.5408982096914 -0.125015564250978,51.5409526993657 -0.12503035417352,51.5410172048233 -0.125035840500823,51.5410355342097 -0.125057501147308,51.5411178803843 -0.12505909681798,51.5411233698541 -0.1250644106382,51.5411429491674 -0.125070864634476,51.5411580521408 -0.125080185935168,51.5411797746033 -0.125097527179719,51.5412187797126 -0.125107446592402,51.5412419496646 -0.12512777655049,51.5412763802696 -0.12514533767038,51.5413060409591 -0.125168884432888,51.5413463790101 -0.125185054061716,51.541375370884 -0.125197271435599,51.5413973689236 -0.125199932681295,51.5413966542578 -0.125252135172766,51.5414717348594 -0.125280734840533,51.5415023677482 -0.125325876536458,51.5415688994411 -0.125382859386435,51.5416542397044 -0.12546476092256,51.5417768364601 -0.125511858785359,51.5418450845635 -0.125544719399447,51.5418963338028 -0.125611774993065,51.5420079146248 -0.125633030910008,51.5420609541607 -0.125677326410034,51.5422056700794 -0.125691431822812,51.5422757012223 -0.125709927734137,51.5423642779948 -0.125727942117045,51.5424520458225 -0.125745891651794,51.5425163776371 -0.125759815825165,51.5425658773413 -0.125789407850149,51.5426663497222 -0.125805673914468,51.5427215045658 -0.125818510419619,51.5427661721984 -0.125838911938417,51.5428314496254 -0.125855424237016,51.5428826516069 -0.125879164460833,51.5429563851305 -0.125897364938842,51.5430146211799 -0.125912648934989,51.5430623773163 -0.125888864377464,51.5431641715742 -0.125911191774239,51.5432549497658 -0.125959152954312,51.5434489113117 -0.125977238764451,51.543528751371 -0.126008790221572,51.543678561046 -0.12602842190003,51.5437666550024 -0.126059639824783,51.5439186220772 -0.126065924313944,51.5439435153111 -0.126096801027426,51.5440578218024 -0.126134432317083,51.5442045028521 -0.126160434068482,51.5443051740807 -0.126195001815318,51.5444386417745 -0.12624491342772,51.5446310669035 -0.126283551526072,51.5447766785575 -0.126309514250179,51.5448789812993 -0.126357565951441,51.5450585701741 -0.126394159127375,51.54519584168 -0.126427608683541,51.5453215253478 -0.126482448129724,51.5455237951148 -0.126521979490647,51.5456678849899 -0.1265780972426,51.5458782001984 -0.126624732120232,51.5460550073684 -0.12665890377876,51.5461924901151 -0.12669187016959,51.5463201731525 -0.126733393386583,51.5464745769951 -0.126756154726703,51.5465667342128 -0.126792946351804,51.5467090248702 -0.126818346390096,51.5468054867371 -0.126858928173923,51.5469411913785 -0.126906200301206,51.5470983262842 -0.126939641452848,51.5472101321265 -0.126966411394848,51.547292853407 -0.126993938536884,51.5473724528144 -0.127007533473473,51.5474087224394 -0.127025040957859,51.5474415275835 -0.127052002328411,51.5474889834532 -0.127079222644218,51.5475301728447 -0.127124046152528,51.5475865351138 -0.127158423183294,51.547630853073 -0.127186686688919,51.5476664899156 -0.127207632580969,51.5476892960829 -0.127235070234345,51.5477170205501 -0.127295070073317,51.5477730341635 -0.127339625746012,51.547816441698 -0.127388549468249,51.5478600798981 -0.127446274363642,51.5479150940101 -0.127479061829317,51.5479441888559 -0.127526304173948,51.5479849099144 -0.127551682805958,51.5480063425345 -0.127595249706096,51.5480425112624 -0.127653876103134,51.5480916008847 -0.127673510841044,51.548106307011 -0.127692310223514,51.5481217920605 -0.127759603834015,51.5481716179489 -0.127830350610646,51.5482229871888 -0.127897252457695,51.5482677141858 -0.12792313789373,51.5482846809477 -0.127966705240493,51.548310455791 -0.128047498912755,51.5483546453615 -0.128132669701605,51.5483966700227 -0.12818570284956,51.5484217540814 -0.128230965022859,51.5484417375923 -0.128260962586852,51.5484573040707 -0.128348683994196,51.5484965842278 -0.128445963758622,51.5485413143799 -0.128573889208396,51.5485984107971 -0.128655990287838,51.5486366379662 -0.128991218519063,51.5487855344368 -0.129102999974713,51.5488365779538 -0.129111691690626,51.5488405465336 -0.129155282758638,51.548860008447 -0.129213476005203,51.5488848532831 -0.129228162950102,51.5488925280108 -0.129298001474977,51.5489367479902 -0.129340829248763,51.5489652542082 -0.129410443006392,51.5490149569808 -0.129469523541882,51.5490609648559 -0.129655776527036,51.5492013027885 -0.129679125719147,51.5492185227992 -0.129753034600491,51.5492725033171 -0.129804070470306,51.5493096823635 -0.129837625312279,51.5493351800215 -0.129851128746304,51.5493474148883 -0.129871194315262,51.549364376591 -0.129890182559838,51.5493794722213 -0.129956206431017,51.5494420336634 -0.130005240943625,51.5494883119076 -0.130028868510075,51.5495113050998 -0.130053113990655,51.5495346363685 -0.130079228184057,51.5495587213259 -0.130093786384302,51.5495740089085 -0.130115488688356,51.549597629666 -0.130127961847362,51.549611706872 -0.130137976580948,51.5496252718823 -0.130146505445084,51.5496348690164 -0.130151366596959,51.5496405570279 -0.130161514255461,51.5496531322603 -0.130166100122188,51.5496614525423 -0.130178271676196,51.5496816174871 -0.130185582376238,51.5496909883735 -0.130193002760436,51.5497049994392 -0.130241999116815,51.5497934689014 -0.130294631793815,51.5498931238487 -0.130385876972917,51.5500616117275 -0.130461966960333,51.5502170668474 -0.130484650376632,51.5502623216066 -0.13050987002168,51.5503143882709 -0.130522602467936,51.5503374145993 -0.130575071392426,51.5504249131849 -0.130599969161692,51.5504764270462 -0.130684106572017,51.5506031566705 -0.130714022194457,51.5506553607777 -0.130735677094792,51.55070978395 -0.130738302792547,51.5507223660259 -0.130733886377155,51.550814778732 -0.130737013990347,51.5508789011598 -0.130739610972966,51.5509970915074 -0.130741686059903,51.5510997962966 -0.130747864127349,51.5511790533819 -0.130755713572981,51.551217581527 -0.130771084453478,51.5512566224773 -0.130794541128002,51.5512977508406 -0.130827387276899,51.5513398129419 -0.130870287505349,51.551382642206 -0.130991693950611,51.551483236333 -0.13104213273923,51.5515226146441 -0.131097655446918,51.5515577889193 -0.131151240046641,51.5515923190001 -0.131194581196221,51.5516132149177 -0.131281941361211,51.5516623662931 -0.131405192496823,51.5517224982042 -0.131438817564092,51.5517407905967 -0.131660402428487,51.5518459623078 -0.13186364043094,51.5519434935984 -0.131980021411525,51.5520035155361 -0.132133729330876,51.5520873991922 -0.132230682486399,51.5521422133011 -0.132332517720103,51.552197717447 -0.132380215398074,51.5522321532772 -0.13242426219867,51.5522597954818 -0.132555020130613,51.5523524983864 -0.13266002443756,51.5524309488834 -0.132757463075271,51.5525020460965 -0.132866954482242,51.5525806289783 -0.132911726143303,51.5526140090623 -0.132988326416954,51.5526709060134 -0.133040352158704,51.5527082026772 -0.133076517136855,51.5527344602564 -0.133096002378196,51.5527495632174 -0.13310790603686,51.552761142719 -0.133133472778369,51.5527801553261 -0.1331825803789,51.5528101313423 -0.133327476327436,51.552899308443 -0.133529951958841,51.5530204844864 -0.133612495747455,51.5530770520458 -0.133717221829111,51.5531445531565 -0.133809029142708,51.5532051869345 -0.133973039031968,51.5533139934043 -0.134082456267234,51.5533897979897 -0.134124470502738,51.5534229916937 -0.134149216932167,51.5534480736731 -0.13432312220425,51.5535762390539 -0.134443141604027,51.553669455323 -0.134536083278503,51.5537485244461 -0.134604600966131,51.553809962659 -0.134701747703677,51.5538938007744 -0.134739896973111,51.5539292843994 -0.134760327335842,51.553952338139 -0.13478713696635,51.5539884247286 -0.134822698640668,51.5540411097037 -0.13484088595603,51.5540742472034 -0.134896538774841,51.5541740079584 -0.134931877086402,51.5542354031224 -0.134946056178915,51.554258448188 -0.134974728237687,51.5543044129068 -0.134991741217284,51.5543309660663 -0.134999741977287,51.5543423771766 -0.135015616773526,51.5543650885707 -0.13502610759851,51.5543800194013 -0.135030913251719,51.5543862809066 -0.135042568799763,51.5544016555947 -0.135057505673881,51.5544209546549 -0.135065146499966,51.5544306217612 -0.135089280881417,51.5544594076239 -0.13509605417954,51.5544665501953 -0.135128802191811,51.5545013244271 -0.13513915435553,51.5545112189562 -0.135172850618425,51.5545434435359 -0.135189489854578,51.5545569226018 -0.135211551317663,51.5545744985347 -0.13522445767114,51.5545838428183 -0.135240612105577,51.5545962674292 -0.135276839662223,51.5546208164968 -0.135303927218152,51.554638421902 -0.135341400384753,51.5546602048135 -0.135384786214884,51.5546822426107 -0.1354065145235,51.5546923789868 -0.135501584750453,51.5547329757883 -0.135575204611595,51.5547619684879 -0.135650774249664,51.5547894246903 -0.135854925068011,51.5548545834008 -0.136052657262378,51.5549191748916 -0.136177704659533,51.5549597354818 -0.136383549415817,51.5550181118012 -0.136567873223304,51.555073879038 -0.136664833210218,51.5551052388322 -0.136776115193499,51.5551461926298 -0.13687549285901,51.5551900193524 -0.136926316029941,51.5552202167224 -0.136987488282501,51.5552615997143 -0.137039899990005,51.5553010064297 -0.137130352012939,51.5553841482678 -0.137317917661482,51.555588303814 -0.137582383163614,51.5558880947106 -0.138066134531981,51.5564871655091 -0.138160236455586,51.5565850286237 -0.138216959718409,51.5566391988964 -0.138332625770053,51.5567653314049 -0.138419338429439,51.556868138141 -0.138554550474396,51.5570315293078 -0.138638425054333,51.5571424615534 -0.13878155129168,51.5573418926791 -0.1390130379834,51.557662736509 -0.139222336056624,51.5579549849165 -0.139271112145482,51.5580217289095 -0.139368352891773,51.5581564951339 -0.139413051194175,51.5582222104115 -0.139427166627681,51.5582421999336 -0.139436685963413,51.5582556823823 -0.139451141531738,51.5582766700779 -0.139609848417459,51.5585094991485 -0.139645855938133,51.5585583763802 -0.139875518889251,51.558907650764 -0.139951352547784,51.5590213186591 -0.140060500439541,51.5591813625096 -0.140227205530643,51.5594253942651 -0.140350310900762,51.5595978077875 -0.14046261912326,51.5597575092246 -0.140492029370867,51.5597893246812 -0.140529683191756,51.5598295959465 -0.140554777703974,51.5598519836508 -0.140594699461372,51.5598881183056 -0.140676228100163,51.5599608863679 -0.140739904352691,51.5600175718372 -0.140795166951446,51.5600733713491 -0.140854412173843,51.5601400176901 -0.14089694144657,51.5601923557192 -0.140922823390633,51.5602286294114 -0.140952060799972,51.5602812578047 -0.14097613458754,51.5603322990782 -0.140989683820443,51.5603651176797 -0.141007642027047,51.5604180692223 -0.141034880956552,51.5605000084095 -0.14104307096041,51.5605360019123 -0.141047125959646,51.5605746888285 -0.141047543058727,51.5606138199177 -0.141045503512349,51.5606569416356 -0.141041542990079,51.560791406426 -0.141030439753524,51.5610402944254 -0.141017383523781,51.5611725082359 -0.141017414725096,51.5612417310405 -0.141009008072945,51.5612945879023 -0.140997794577594,51.5614095581322 -0.140990071685157,51.5614540304405 -0.140973837694587,51.561512945677 -0.140954829215608,51.5615628038125 -0.14092878228026,51.5616156852615 -0.140905855204861,51.5616537254653 -0.140855779923634,51.561735489701 -0.14079137610864,51.5618400090705 -0.140748537267803,51.5619142037923 -0.140711631341038,51.561991112872 -0.140684553893619,51.5620528697084 -0.140651417257455,51.5621644226418 -0.140631361063099,51.5622506018369 -0.140604321969238,51.56233681071 -0.140596512896934,51.5623618389862 -0.140593970862048,51.5623756669238 -0.140582826565766,51.5624266477217 -0.140576578477956,51.5624828425731 -0.140570268524551,51.5625284558938 -0.140567093153167,51.562553778776 -0.140556202645173,51.5626374818232 -0.140555080553463,51.5626544868117 -0.140553025759121,51.5627202881986 -0.140553148981793,51.5627481128778 -0.140555837548478,51.5627900855895 -0.140566842801811,51.5628451365001 -0.140591141531379,51.5629419054423 -0.140618539037307,51.5630563729937 -0.140633719459988,51.5631157857301 -0.140643506411438,51.5631378850827 -0.140675040484067,51.5632202718242 -0.140682768968,51.5632426802849 -0.140689157721159,51.563262844586 -0.140707198440731,51.5633193090156 -0.140734410475502,51.5634035255978 -0.140739740632561,51.5634180555294 -0.140752931872366,51.5634545391978 -0.140763246899567,51.5634921013726 -0.140770372338734,51.5635257606549 -0.140774436877151,51.5635587293978 -0.140773841025008,51.5635922663957 -0.140772126531163,51.5636070291694 -0.140761195172971,51.5636746485301 -0.140755555921118,51.5637204082608 -0.140735982631506,51.5638611704437 -0.140718491335181,51.5639663059302 -0.14068266539124,51.5640738937372 -0.140645333513494,51.5642030108478 -0.140632687184109,51.5642510102236 -0.140622352113022,51.5643194240541 -0.140620397668182,51.5643519179849 -0.140621175569062,51.5644099263793 -0.140627331361376,51.5644593997628 -0.140637687653008,51.5644983582279 -0.140654480323318,51.5645441486006 -0.140688460181285,51.5646300919078 -0.140715947425363,51.5646897130164 -0.140734200063963,51.5647221043292 -0.140747941188242,51.5647451142793 -0.14080719559633,51.5648393082548 -0.140873143180665,51.5649525481422 -0.140900150199937,51.5649975973852 -0.140922040715627,51.5650355038076 -0.140935398094745,51.5650552973433 -0.140980014649729,51.5651232567833 -0.140996867247249,51.5651520945363 -0.141026127839775,51.5652050442509 -0.141040763000872,51.5652376983609 -0.141069162203589,51.5652991422033 -0.141079898500725,51.5653267788187 -0.141129739939163,51.5654475006386 -0.14117418718609,51.5655735181209 -0.141219777916787,51.5657352978694 -0.14123812976789,51.5658249340513 -0.141265279416006,51.5659609506162 -0.141301739489672,51.5661308147679 -0.141324090460148,51.566230310644 -0.141355725842673,51.5663797214421 -0.141385677393441,51.566554968818 -0.141418405424589,51.5667392732898 -0.141437429154007,51.5668587022252 -0.141435725075536,51.5668899852349 -0.141433094438347,51.5670189801575 -0.141453309315795,51.5671497188881 -0.14150267152478,51.5673366371012 -0.141531980068018,51.5674130253128 -0.141559574148395,51.5674832634101 -0.141663535291844,51.5677457902458 -0.141672981923827,51.5677727705819 -0.141765456202687,51.5680002364374 -0.141796603477969,51.5680797147153 -0.141821785311589,51.568160935724 -0.141836197761274,51.5681930034439 -0.141857196381279,51.5682307237527 -0.141912391620581,51.568345445483 -0.141963112413948,51.5684273521273 -0.142000628266549,51.5684832854681 -0.142042691147713,51.5685466501869 -0.14206750325557,51.5685858372298 -0.142094973955599,51.5686215403976 -0.142151856424151,51.5686761264615 -0.142233988605071,51.5687283684612 -0.142362083830568,51.5688105416091 -0.142387374037215,51.5688300399653 -0.142470788857069,51.56890453685 -0.142478980397036,51.5689195579718 -0.142482772261093,51.5689345085811 -0.142482102019564,51.5689509559754 -0.142478998030447,51.5689654063047 -0.142472528401781,51.5689852887818 -0.142459019274695,51.5690081955471 -0.142432366603132,51.5690450017154 -0.142403637648544,51.5690864762821 -0.142395792616302,51.5691059736962 -0.142140168511498,51.5691427427525 -0.141927314981679,51.5691729123892 -0.141817841322195,51.5691956230004 -0.14165106121715,51.5692367538901 -0.141552618016178,51.5692573646644 -0.14135349412138,51.5692812598416 -0.141258678204886,51.5692960008659 -0.141131157267996,51.5693152912235 -0.141018991540073,51.5693333345385 -0.140939820384852,51.5693469795607 -0.140877551033482,51.5693597051823 -0.140835298699942,51.569363804769 -0.140779466625184,51.5693779784518 -0.140775066389569,51.5693789464957 -0.140632153922172,51.5694283771698 -0.140516325881797,51.5694771117064 -0.140392696332243,51.5695316207038 -0.14009148985929,51.5696554458072 -0.140026149436956,51.5696919280508 -0.139936363603475,51.5697462137875 -0.139705118453539,51.5698693136708 -0.13959178647739,51.5699340565399 -0.13943203557984,51.5700164631091 -0.139324559063414,51.5700694239773 -0.139168243490944,51.5701517137731 -0.138953910188488,51.5702680085491 -0.13882499488261,51.5703369072374 -0.138796876580342,51.5703571773789 -0.138747194877533,51.5703955797449 -0.138718387689006,51.5704149783674 -0.138678710417318,51.5704400937992 -0.138650860151591,51.5704563413333 -0.138610874541573,51.5704748001342 -0.138540944079616,51.5705037270392 -0.138467776964686,51.5705295757197 -0.138419612150199,51.5705484919676 -0.138308787305251,51.5705939854189 -0.138304536428666,51.5705955321542 -0.138236368084438,51.5706241630912 -0.138104088892563,51.5706793426968 -0.138054506146117,51.570700851311 -0.138011577075196,51.5707225050015 -0.137928067161014,51.5707673540181 -0.137822426827289,51.570822579939 -0.137729840844446,51.5708700868953 -0.13761323232713,51.5709230299074 -0.137569747114159,51.570943910253 -0.137545359394446,51.5709526372089 -0.137476408261336,51.5709791051851 -0.13734821873697,51.5710231828825 -0.137260664447923,51.5710517115916 -0.137082261772184,51.5711139060846 -0.137034633962546,51.571129752163 -0.136931392447761,51.5711669144303 -0.136870010875234,51.5711873819102 -0.136767406440856,51.571223708852 -0.136677998945257,51.5712579808649 -0.136525012619465,51.5713301683565 -0.136144507850163,51.5715309848826 -0.135879139624675,51.5716337510759 -0.135577325324255,51.5717432199447 -0.135416678849767,51.5718008334522 -0.135284678627468,51.5718485685277 -0.135126389736934,51.5719252201301 -0.134868758912754,51.572068667862 -0.134776374589306,51.5721254235938 -0.134719623106742,51.5721577934752 -0.134628073485175,51.5722015493851 -0.134134742880659,51.5724778451625 -0.133720351890036,51.5726986323541 -0.133599780153876,51.5727720172749 -0.133549448587848,51.572801819753 -0.133511023029738,51.5728186043948 -0.133401353151701,51.5728685924233 -0.133385263767559,51.5728751554383 -0.133334152858738,51.5728960033334 -0.1331881590148,51.5729642299769 -0.133095584377023,51.5730030243367 -0.132961959720583,51.5730595280141 -0.132913809297744,51.5730739024091 -0.132856044771388,51.5730958546032 -0.132784302311584,51.5731182299856 -0.132700666128925,51.5731407370725 -0.132618989521789,51.5731658525232 -0.132327769402588,51.5732517380356 -0.132213636035905,51.5732845889354 -0.132015394681503,51.573336965909 -0.131805188239208,51.5733951482051 -0.131707350281925,51.5734235496231 -0.131647543075239,51.5734448248387 -0.131535903066777,51.5734820257645 -0.131414579436208,51.5735158512728 -0.131264390332442,51.5735601697315 -0.131138972615931,51.5735929639608 -0.130904439611078,51.5736391596122 -0.130750035790445,51.5736602160463 -0.130583072126767,51.5736849380226 -0.13045097569709,51.5737040950674 -0.130165836179329,51.5737362747748 -0.129992779146835,51.573758321571 -0.129911270569464,51.5737666866813 -0.129816091740481,51.5737806330764 -0.129713373994097,51.5737893038525 -0.129624911285446,51.5738033571471 -0.129475910102292,51.5738186987964 -0.129309746892408,51.5738415379133 -0.129193632183165,51.5738572110832 -0.129168614047235,51.5738621725822 -0.129116354645339,51.5738697922201 -0.129094634965381,51.5738750122244 -0.129071675903657,51.5738781513924 -0.128955208681919,51.5738988571761 -0.12887904805586,51.5739119991117 -0.128808248643679,51.5739245071008 -0.128765771188475,51.5739313042028 -0.128727298708557,51.5739375311944 -0.128632946537235,51.5739523099263 -0.128480097553503,51.5739791352509 -0.128447142607217,51.5739875633839 -0.128391482970141,51.5739973963594 -0.128352408675256,51.5740062574094 -0.128288433068971,51.5740171950446 -0.128223389080636,51.5740299707442 -0.128202109499632,51.5740325169545 -0.128117125223587,51.5740474492125 -0.128103831270489,51.5740488863417 -0.128055455763285,51.5740586294392 -0.127960425159897,51.5740764929085 -0.127951659035743,51.574080476984 -0.127935398330262,51.5740816599334 -0.127855382012003,51.574096465339 -0.12776566659185,51.5741137947779 -0.127704022360785,51.5741243565421 -0.12764045434401,51.5741334442864 -0.127567109524013,51.5741469126682 -0.127523625631534,51.5741503417734 -0.127481056172199,51.5741476004474 -0.127391670318304,51.5741408135072 -0.127340028229601,51.5741333924395 -0.127298501825047,51.5741294303331 -0.127173626180088,51.5741167163848 -0.127158432362723,51.574116062012 -0.127125953169982,51.5741173987267 -0.127099297411439,51.5741219217911 -0.12706708920878,51.5741247061036 -0.127002137883326,51.5741352147098 -0.126977026248043,51.5741424421461 -0.12691062526528,51.5741399388624 -0.126766698534055,51.5741238278463 -0.12667145264845,51.5741146789041 -0.126545568054221,51.5741023609311 -0.126478428984315,51.5740936606085 -0.126396165370027,51.5740826567669 -0.126289203635683,51.5740687846388 -0.126219452135085,51.5740592178413 -0.126111643737159,51.5740418267717 -0.12598253729568,51.5740273947686 -0.125826073475879,51.5740194579264 -0.125543684130121,51.5740223567381 -0.125436044883689,51.5740311097094 -0.125416494094885,51.5740327765953 -0.125383162094713,51.5740348833442 -0.125241260571417,51.5740509562257 -0.1250520615324,51.574071281043 -0.125028403518165,51.574081334239 -0.124967047651254,51.5740834678498 -0.124861265181923,51.5740921222735 -0.12482279453738,51.5741056552829 -0.124815243522648,51.5741084049963 -0.124809962380635,51.5741101766369 -0.124691151900384,51.5741288821865 -0.124594449317091,51.5741438889819 -0.124596320227177,51.5741478027264 -0.124578388057683,51.5741949755773 -0.124557690709942,51.5742500427649 -0.124544279433718,51.5742861408261 -0.124527412732806,51.5743304594086 -0.124515363002153,51.5743628572529 -0.124428233060776,51.574352941467 -0.124396801512641,51.5743493986814 -0.124378317178708,51.5743474144204 -0.124358334707091,51.5743455743668 -0.124334560682661,51.5743436745981 -0.124327789600671,51.5743435663568 -0.124308926496231,51.5743441937331 -0.124283905129735,51.5743464788853 -0.124246871832431,51.5743512706391 -0.124237390133963,51.574352364514 -0.124220117942605,51.5743560639526 -0.124200188195375,51.5743618152449 -0.124184728976537,51.5743669779585 -0.12415921626133,51.5743797647094 -0.124099795946187,51.5744235404914 -0.123883477324337,51.5745811960298 -0.123798580101233,51.5746425150261 -0.123784846474727,51.5746469130448 -0.123764298258912,51.5746522587058 -0.123727689022469,51.5746622376297 -0.123673335117541,51.5746644609517 -0.123605636089343,51.5746693565127 -0.123356059038852,51.5746875574918 -0.123354754394626,51.5746954454881 -0.123251811975408,51.5746970848122 -0.123242028554605,51.5746976881883 -0.123208395982167,51.5746982482064 -0.123200954082486,51.5747045470844 -0.122903347952061,51.5748000747093 -0.122719310666598,51.574860573004 -0.122384833354725,51.574967717545 -0.122346142226402,51.574909700455 -0.122139327487941,51.5749718539433 -0.121844203283507,51.5750427406185 -0.121769054395528,51.5750624046774 -0.121750044628606,51.5750674940486 -0.121725461100619,51.5750282845903 -0.121610050604031,51.5750540142023 -0.121234155717711,51.5751377819668 -0.120732994439905,51.5752561964176 -0.120177501991868,51.5753874293078 -0.119865833926956,51.5754607158233 -0.119873184641214,51.5754704978005 -0.119534768978607,51.5755067402588 -0.119280740680436,51.5751116255562 -0.11927008697206,51.5750934779714</coordinates></LinearRing></outerBoundaryIs></Polygon>
        </Placemark>
    </Document>
</kml>